{
"type": "FeatureCollection",
"name": "points",
"crs": { "type": "name", "properties": { "name": "urn:ogc:def:crs:OGC:1.3:CRS84" } },
"features": [
{ "type": "Feature", "properties": { "osm_timestamp": "2021\/01\/09 22:57:04+00", "amenity": "cafe", "brand": "Costa", "brand:wikidata": "Q608845", "cuisine": "coffee_shop", "name": "Costa" }, "geometry": { "type": "Point", "coordinates": [ -1.7585831, 51.1767601 ] } },
{ "type": "Feature", "properties": { "osm_timestamp": "2020\/10\/10 17:12:10+00", "addr:postcode": "CH2 4QZ", "amenity": "cafe", "brand": "Costa", "brand:wikidata": "Q608845", "cuisine": "coffee_shop", "fhrs:id": "996322", "name": "Costa" }, "geometry": { "type": "Point", "coordinates": [ -2.8027064, 53.2677876 ] } },
{ "type": "Feature", "properties": { "osm_timestamp": "2020\/11\/11 09:03:10+00", "addr:city": "Kempston", "addr:country": "GB", "addr:postcode": "MK42 7AZ", "addr:street": "Riley Way", "amenity": "cafe", "brand": "Costa", "brand:wikidata": "Q608845", "cuisine": "coffee_shop", "fhrs:id": "965845", "name": "Costa Coffee" }, "geometry": { "type": "Point", "coordinates": [ -0.4809679, 52.1099348 ] } },
{ "type": "Feature", "properties": { "osm_timestamp": "2019\/12\/03 22:44:20+00", "addr:postcode": "ST5 5HG", "addr:street": "Three Mile Lane", "amenity": "cafe", "brand": "Starbucks", "brand:wikidata": "Q37158", "cuisine": "coffee_shop", "fhrs:id": "830891", "name": "Starbucks" }, "geometry": { "type": "Point", "coordinates": [ -2.2888367, 52.994129 ] } },
{ "type": "Feature", "properties": { "osm_timestamp": "2017\/10\/18 20:24:22+00", "addr:city": "Ipswich", "addr:postcode": "IP1 2DZ", "addr:street": "West End Road", "amenity": "cafe", "cuisine": "coffee_shop", "fhrs:id": "947046", "name": "Starbucks" }, "geometry": { "type": "Point", "coordinates": [ 1.1359857, 52.0573724 ] } },
{ "type": "Feature", "properties": { "osm_timestamp": "2021\/01\/01 20:12:41+00", "amenity": "cafe", "brand": "Costa", "brand:wikidata": "Q608845", "cuisine": "coffee_shop", "name": "Costa" }, "geometry": { "type": "Point", "coordinates": [ -0.3097112, 51.5321997 ] } },
{ "type": "Feature", "properties": { "osm_timestamp": "2018\/01\/16 21:25:29+00" }, "geometry": { "type": "Point", "coordinates": [ -2.3435789, 53.4667647 ] } },
{ "type": "Feature", "properties": { "osm_timestamp": "2021\/01\/08 04:13:58+00", "addr:city": "Derby", "addr:postcode": "DE21 4SY", "addr:street": "Mansfield Road", "amenity": "cafe", "brand": "Costa", "brand:wikidata": "Q608845", "cuisine": "coffee_shop", "fhrs:id": "1068248", "name": "Costa" }, "geometry": { "type": "Point", "coordinates": [ -1.4641335, 52.9401239 ] } },
{ "type": "Feature", "properties": { "osm_timestamp": "2021\/01\/26 21:14:10+00", "addr:city": "Pocklington", "addr:postcode": "YO42 1AD", "addr:street": "York Road", "amenity": "cafe", "brand": "Starbucks", "brand:wikidata": "Q37158", "cuisine": "coffee_shop", "internet_access": "yes", "name": "Starbucks", "outdoor_seating": "yes" }, "geometry": { "type": "Point", "coordinates": [ -0.7953471, 53.9208438 ] } },
{ "type": "Feature", "properties": { "osm_timestamp": "2019\/03\/13 12:50:22+00" }, "geometry": { "type": "Point", "coordinates": [ -2.1023051, 51.9158291 ] } },
{ "type": "Feature", "properties": { "osm_timestamp": "2019\/02\/04 20:34:17+00" }, "geometry": { "type": "Point", "coordinates": [ -1.0957802, 50.8462658 ] } },
{ "type": "Feature", "properties": { "osm_timestamp": "2020\/09\/27 11:21:59+00", "amenity": "cafe", "brand": "Costa", "brand:wikidata": "Q608845", "name": "Costa" }, "geometry": { "type": "Point", "coordinates": [ -2.7426108, 53.4515325 ] } },
{ "type": "Feature", "properties": { "osm_timestamp": "2021\/01\/03 16:18:59+00", "amenity": "cafe", "brand": "Costa", "brand:wikidata": "Q608845", "cuisine": "coffee_shop", "name": "Costa" }, "geometry": { "type": "Point", "coordinates": [ -2.2738998, 53.5762725 ] } },
{ "type": "Feature", "properties": { "osm_timestamp": "2019\/07\/19 18:45:18+00" }, "geometry": { "type": "Point", "coordinates": [ -2.0976436, 51.9131351 ] } },
{ "type": "Feature", "properties": { "osm_timestamp": "2021\/01\/01 19:00:44+00", "amenity": "cafe", "brand": "Costa", "brand:wikidata": "Q608845", "cuisine": "coffee_shop", "name": "Costa" }, "geometry": { "type": "Point", "coordinates": [ -1.3945566, 53.3760959 ] } },
{ "type": "Feature", "properties": { "osm_timestamp": "2021\/03\/09 17:52:26+00", "addr:city": "Stotfold", "addr:country": "GB", "addr:postcode": "SG5 4BL", "addr:street": "Great North Road", "amenity": "cafe", "brand": "Costa Coffee", "cuisine": "coffee_shop", "name": "Costa Coffee" }, "geometry": { "type": "Point", "coordinates": [ -0.2150917, 52.0288253 ] } },
{ "type": "Feature", "properties": { "osm_timestamp": "2020\/02\/15 12:18:26+00", "addr:city": "Portsmouth", "addr:country": "GB", "addr:postcode": "PO3 5NA", "addr:street": "Burrfields Road", "amenity": "cafe", "brand": "Starbucks", "brand:wikidata": "Q37158", "cuisine": "coffee_shop", "fhrs:id": "1008042", "name": "Starbucks" }, "geometry": { "type": "Point", "coordinates": [ -1.0560327, 50.8167322 ] } },
{ "type": "Feature", "properties": { "osm_timestamp": "2020\/10\/13 19:44:29+00", "amenity": "cafe", "brand": "Starbucks", "brand:wikidata": "Q37158", "cuisine": "coffee_shop", "name": "Starbucks" }, "geometry": { "type": "Point", "coordinates": [ -1.7694672, 53.6575229 ] } },
{ "type": "Feature", "properties": { "osm_timestamp": "2020\/09\/23 08:08:11+00", "addr:city": "Liverpool", "addr:postcode": "L24 9HZ", "addr:street": "Boulevard Retail Park", "amenity": "cafe", "brand": "Costa", "brand:wikidata": "Q608845", "cuisine": "coffee_shop", "fhrs:id": "1262318", "name": "Costa" }, "geometry": { "type": "Point", "coordinates": [ -2.8592402, 53.3496323 ] } },
{ "type": "Feature", "properties": { "osm_timestamp": "2020\/08\/23 19:08:28+00" }, "geometry": { "type": "Point", "coordinates": [ -2.0110619, 52.5674673 ] } },
{ "type": "Feature", "properties": { "osm_timestamp": "2020\/09\/13 15:35:30+00", "amenity": "cafe", "brand": "Costa", "brand:wikidata": "Q608845", "cuisine": "coffee_shop", "name": "Costa" }, "geometry": { "type": "Point", "coordinates": [ -1.4326328, 53.793612 ] } },
{ "type": "Feature", "properties": { "osm_timestamp": "2020\/11\/17 05:49:38+00", "amenity": "cafe", "brand": "Starbucks", "brand:wikidata": "Q37158", "cuisine": "coffee_shop", "name": "Starbucks" }, "geometry": { "type": "Point", "coordinates": [ -3.576599, 51.5351229 ] } },
{ "type": "Feature", "properties": { "osm_timestamp": "2021\/04\/20 22:09:07+00", "amenity": "cafe", "brand": "Starbucks", "brand:wikidata": "Q37158", "cuisine": "coffee_shop", "name": "Starbucks" }, "geometry": { "type": "Point", "coordinates": [ -2.9203141, 53.4103289 ] } },
{ "type": "Feature", "properties": { "osm_timestamp": "2020\/12\/23 18:38:11+00", "amenity": "cafe", "cuisine": "coffee_shop", "name": "Costa" }, "geometry": { "type": "Point", "coordinates": [ -4.1924885, 57.4665626 ] } },
{ "type": "Feature", "properties": { "osm_timestamp": "2021\/04\/18 21:14:48+00", "addr:city": "Gosport", "addr:country": "GB", "addr:postcode": "PO12 4FA", "addr:street": "Cotsworth Road", "amenity": "cafe", "brand": "Costa", "brand:wikidata": "Q608845", "cuisine": "coffee_shop", "fhrs:id": "1108764", "name": "Costa", "outdoor_seating": "yes" }, "geometry": { "type": "Point", "coordinates": [ -1.157805, 50.8178653 ] } },
{ "type": "Feature", "properties": { "osm_timestamp": "2021\/04\/18 21:21:45+00", "addr:city": "Gosport", "addr:postcode": "PO13 0ZX", "addr:street": "Fareham Road", "amenity": "cafe", "brand": "Starbucks", "brand:wikidata": "Q37158", "cuisine": "coffee_shop", "internet_access": "wlan", "name": "Starbucks", "operator": "23.5 Degrees Limited, a franchisee of Starbucks Coffee Company (UK) Limited" }, "geometry": { "type": "Point", "coordinates": [ -1.1601129, 50.8168254 ] } },
{ "type": "Feature", "properties": { "osm_timestamp": "2021\/04\/01 11:52:56+00", "amenity": "cafe", "brand": "Starbucks", "brand:wikidata": "Q37158", "cuisine": "coffee_shop", "name": "Starbucks" }, "geometry": { "type": "Point", "coordinates": [ -2.734207, 53.7623553 ] } }
]
}
