{
"type": "FeatureCollection",
"name": "multipolygons",
"crs": { "type": "name", "properties": { "name": "urn:ogc:def:crs:OGC:1.3:CRS84" } },
"features": [
{ "type": "Feature", "properties": { "osm_timestamp": "2020\/01\/09 22:13:55", "amenity": "cafe", "brand": "Starbucks", "brand:wikidata": "Q37158", "cuisine": "coffee_shop", "name": "Starbucks" }, "geometry": { "type": "MultiPolygon", "coordinates": [ [ [ [ -1.5577005, 51.4804906 ], [ -1.5575289, 51.4804196 ], [ -1.5574623, 51.4804819 ], [ -1.5573955, 51.4804542 ], [ -1.557317, 51.4805277 ], [ -1.5573839, 51.4805554 ], [ -1.5573489, 51.4805882 ], [ -1.5574408, 51.4806263 ], [ -1.5575205, 51.4806593 ], [ -1.5576588, 51.4805297 ], [ -1.5577005, 51.4804906 ] ] ] ] } },
{ "type": "Feature", "properties": { "osm_timestamp": "2017\/10\/11 11:36:43", "addr:city": "Preston", "addr:place": "Queens Retail Park", "addr:postcode": "PR1 4HZ", "addr:street": "Queen Street", "amenity": "cafe", "cuisine": "coffee_shop", "fhrs:id": "972878", "name": "Costa Coffee" }, "geometry": { "type": "MultiPolygon", "coordinates": [ [ [ [ -2.6884883, 53.760392 ], [ -2.6886535, 53.7605307 ], [ -2.6885169, 53.7605876 ], [ -2.6883517, 53.7604488 ], [ -2.6884883, 53.760392 ] ] ] ] } },
{ "type": "Feature", "properties": { "osm_timestamp": "2019\/08\/07 17:06:48", "addr:postcode": "DE13 8EH", "addr:street": "Lichfield Road", "amenity": "cafe", "brand": "Starbucks", "brand:wikidata": "Q37158", "cuisine": "coffee_shop", "name": "Starbucks" }, "geometry": { "type": "MultiPolygon", "coordinates": [ [ [ [ -1.7065276, 52.7585917 ], [ -1.7063801, 52.7587 ], [ -1.7065342, 52.7587769 ], [ -1.7066817, 52.7586686 ], [ -1.7065276, 52.7585917 ] ] ] ] } },
{ "type": "Feature", "properties": { "osm_timestamp": "2019\/10\/21 04:01:46", "amenity": "cafe", "brand": "Starbucks", "brand:wikidata": "Q37158", "cuisine": "coffee_shop", "name": "Starbucks" }, "geometry": { "type": "MultiPolygon", "coordinates": [ [ [ [ -2.3436766, 53.4668381 ], [ -2.3436091, 53.4668914 ], [ -2.3434605, 53.4668247 ], [ -2.3434507, 53.4668324 ], [ -2.3434005, 53.4668099 ], [ -2.3434097, 53.4668027 ], [ -2.343358, 53.4667795 ], [ -2.34345, 53.4667068 ], [ -2.3435789, 53.4667647 ], [ -2.3436459, 53.4667948 ], [ -2.343622, 53.4668136 ], [ -2.3436766, 53.4668381 ] ] ] ] } },
{ "type": "Feature", "properties": { "osm_timestamp": "2021\/01\/10 21:19:20", "amenity": "cafe", "brand": "Starbucks", "brand:wikidata": "Q37158", "cuisine": "coffee_shop", "name": "Starbucks" }, "geometry": { "type": "MultiPolygon", "coordinates": [ [ [ [ 0.2498068, 51.8754372 ], [ 0.2497855, 51.8752814 ], [ 0.2498532, 51.8752779 ], [ 0.2498491, 51.8752477 ], [ 0.2499933, 51.8752403 ], [ 0.2500036, 51.8753162 ], [ 0.2500307, 51.8753148 ], [ 0.2500485, 51.875446 ], [ 0.2499035, 51.8754535 ], [ 0.2499006, 51.8754323 ], [ 0.2498068, 51.8754372 ] ] ] ] } },
{ "type": "Feature", "properties": { "osm_timestamp": "2020\/12\/13 08:41:12", "amenity": "cafe", "name": "Starbucks" }, "geometry": { "type": "MultiPolygon", "coordinates": [ [ [ [ -2.7057561, 52.9670668 ], [ -2.7058698, 52.9672516 ], [ -2.7057292, 52.967283 ], [ -2.7056155, 52.9670981 ], [ -2.7057561, 52.9670668 ] ] ] ] } },
{ "type": "Feature", "properties": { "osm_timestamp": "2019\/10\/07 07:22:17", "addr:place": "Castle Marina Retail Park", "addr:postcode": "NG7 1GX", "addr:street": "Castle Bridge Road", "amenity": "cafe", "brand": "Costa", "brand:wikidata": "Q608845", "cuisine": "coffee_shop", "fhrs:id": "217322", "name": "Costa" }, "geometry": { "type": "MultiPolygon", "coordinates": [ [ [ [ -1.1598642, 52.9458242 ], [ -1.1597623, 52.9459662 ], [ -1.1599049, 52.9460033 ], [ -1.1600068, 52.9458614 ], [ -1.1598642, 52.9458242 ] ] ] ] } },
{ "type": "Feature", "properties": { "osm_timestamp": "2020\/12\/08 18:53:44", "amenity": "cafe", "brand": "Starbucks", "brand:wikidata": "Q37158", "cuisine": "coffee_shop", "name": "Starbucks", "operator": "Starbucks" }, "geometry": { "type": "MultiPolygon", "coordinates": [ [ [ [ -3.0293292, 52.8501967 ], [ -3.0290803, 52.8501731 ], [ -3.0290752, 52.8501925 ], [ -3.0289988, 52.8501852 ], [ -3.0290104, 52.8501406 ], [ -3.0289711, 52.8501368 ], [ -3.0289919, 52.8500587 ], [ -3.0292115, 52.8500795 ], [ -3.0292075, 52.8500946 ], [ -3.0293522, 52.8501084 ], [ -3.0293292, 52.8501967 ] ] ] ] } },
{ "type": "Feature", "properties": { "osm_timestamp": "2019\/10\/05 11:31:06", "addr:city": "Taunton", "addr:country": "GB", "addr:postcode": "TA1 2LR", "addr:street": "Hankridge Way", "amenity": "cafe", "brand": "Costa", "brand:wikidata": "Q608845", "cuisine": "coffee_shop", "fhrs:id": "622060", "internet_access": "yes", "internet_access:fee": "customers", "name": "Costa", "outdoor_seating": "yes" }, "geometry": { "type": "MultiPolygon", "coordinates": [ [ [ [ -3.0641687, 51.0202039 ], [ -3.0642039, 51.0201081 ], [ -3.0644443, 51.020143 ], [ -3.0644091, 51.0202388 ], [ -3.0641687, 51.0202039 ] ] ] ] } },
{ "type": "Feature", "properties": { "osm_timestamp": "2019\/11\/11 07:33:37", "addr:city": "Shirley", "addr:postcode": "B90 3AQ", "addr:street": "Stratford Road", "amenity": "cafe", "cuisine": "coffee_shop", "fhrs:id": "523517", "name": "Costa" }, "geometry": { "type": "MultiPolygon", "coordinates": [ [ [ [ -1.8094579, 52.3918911 ], [ -1.8093873, 52.3920057 ], [ -1.8091413, 52.3919493 ], [ -1.8092119, 52.3918346 ], [ -1.8094579, 52.3918911 ] ] ] ] } },
{ "type": "Feature", "properties": { "osm_timestamp": "2020\/01\/09 22:13:55", "amenity": "cafe", "brand": "Starbucks", "brand:wikidata": "Q37158", "cuisine": "coffee_shop", "name": "Starbucks" }, "geometry": { "type": "MultiPolygon", "coordinates": [ [ [ [ -1.5582636, 51.4841728 ], [ -1.5582473, 51.4842505 ], [ -1.5578333, 51.4842167 ], [ -1.55786, 51.4840898 ], [ -1.5579717, 51.484099 ], [ -1.5579763, 51.4840773 ], [ -1.5580629, 51.4840844 ], [ -1.5580584, 51.4841061 ], [ -1.5581839, 51.4841163 ], [ -1.5581736, 51.4841655 ], [ -1.5582636, 51.4841728 ] ] ] ] } },
{ "type": "Feature", "properties": { "osm_timestamp": "2021\/01\/01 14:47:00", "amenity": "cafe", "brand": "Starbucks", "brand:wikidata": "Q37158", "cuisine": "coffee_shop", "name": "Starbucks", "outdoor_seating": "yes" }, "geometry": { "type": "MultiPolygon", "coordinates": [ [ [ [ -4.0288844, 55.7795701 ], [ -4.0291121, 55.7794674 ], [ -4.028914, 55.7793285 ], [ -4.0286863, 55.7794313 ], [ -4.0288844, 55.7795701 ] ] ] ] } },
{ "type": "Feature", "properties": { "osm_timestamp": "2021\/01\/27 08:38:51", "addr:city": "Newcastle-under-Lyme", "addr:country": "GB", "addr:postcode": "ST5 0AP", "addr:street": "Wolstanton Retail Park", "amenity": "cafe", "brand": "Starbucks", "brand:wikidata": "Q37158", "cuisine": "coffee_shop", "fhrs:id": "773123", "internet_access": "wlan", "name": "Starbucks" }, "geometry": { "type": "MultiPolygon", "coordinates": [ [ [ [ -2.2090767, 53.0303924 ], [ -2.2090588, 53.0303045 ], [ -2.2090796, 53.030303 ], [ -2.2090545, 53.0301794 ], [ -2.2089371, 53.0301881 ], [ -2.2089405, 53.0302047 ], [ -2.2088767, 53.0302094 ], [ -2.208886, 53.0302553 ], [ -2.2089072, 53.0302537 ], [ -2.2089375, 53.0304026 ], [ -2.2090767, 53.0303924 ] ] ] ] } },
{ "type": "Feature", "properties": { "osm_timestamp": "2019\/10\/20 01:27:00", "addr:city": "Gateshead", "addr:postcode": "NE11 9ZG", "addr:street": "Western Avenue", "amenity": "cafe", "brand": "Starbucks", "brand:wikidata": "Q37158", "cuisine": "coffee_shop", "fhrs:id": "429011", "internet_access": "wlan", "name": "Starbucks" }, "geometry": { "type": "MultiPolygon", "coordinates": [ [ [ [ -1.6735475, 54.9592563 ], [ -1.6738351, 54.9593018 ], [ -1.6738918, 54.9591835 ], [ -1.6736042, 54.959138 ], [ -1.6735475, 54.9592563 ] ] ] ] } },
{ "type": "Feature", "properties": { "osm_timestamp": "2021\/01\/25 21:13:17", "addr:place": "Markham Vale Services", "amenity": "cafe", "brand": "Starbucks", "brand:wikidata": "Q37158", "cuisine": "coffee_shop", "fhrs:id": "693309", "name": "Starbucks" }, "geometry": { "type": "MultiPolygon", "coordinates": [ [ [ [ -1.3341725, 53.243503 ], [ -1.3341168, 53.2435086 ], [ -1.3341216, 53.2435257 ], [ -1.3339965, 53.2435384 ], [ -1.3339579, 53.2434017 ], [ -1.3340092, 53.2433965 ], [ -1.3339951, 53.2433467 ], [ -1.334108, 53.2433353 ], [ -1.3341416, 53.243454 ], [ -1.3341758, 53.2434505 ], [ -1.3341827, 53.2434752 ], [ -1.3341652, 53.243477 ], [ -1.3341725, 53.243503 ] ] ] ] } },
{ "type": "Feature", "properties": { "osm_timestamp": "2020\/12\/19 18:15:20", "addr:city": "Peterlee", "addr:place": "North West Industrial Estate", "addr:postcode": "SR8 2RH", "addr:street": "Cook Way", "amenity": "cafe", "cuisine": "coffee_shop", "name": "Siesta Coffee" }, "geometry": { "type": "MultiPolygon", "coordinates": [ [ [ [ -1.3686892, 54.7624907 ], [ -1.3686918, 54.7624493 ], [ -1.3686716, 54.7624489 ], [ -1.3686807, 54.7623447 ], [ -1.3684922, 54.7623379 ], [ -1.368487, 54.7624015 ], [ -1.3684401, 54.7624004 ], [ -1.3684361, 54.7624504 ], [ -1.3684583, 54.7624512 ], [ -1.3684564, 54.7624869 ], [ -1.3686892, 54.7624907 ] ] ] ] } },
{ "type": "Feature", "properties": { "osm_timestamp": "2019\/03\/13 12:50:23", "addr:postcode": "GL51 9FJ", "amenity": "cafe", "brand": "Starbucks", "brand:wikidata": "Q37158", "cuisine": "coffee_shop", "name": "Starbucks", "outdoor_seating": "yes" }, "geometry": { "type": "MultiPolygon", "coordinates": [ [ [ [ -2.1021715, 51.9160422 ], [ -2.1020743, 51.9160022 ], [ -2.102276, 51.9158172 ], [ -2.1023051, 51.9158291 ], [ -2.1023733, 51.9158572 ], [ -2.1021715, 51.9160422 ] ] ] ] } },
{ "type": "Feature", "properties": { "osm_timestamp": "2019\/05\/21 20:13:06", "amenity": "cafe", "brand": "Costa", "brand:wikidata": "Q608845", "cuisine": "coffee_shop", "name": "Costa" }, "geometry": { "type": "MultiPolygon", "coordinates": [ [ [ [ -2.5722831, 51.5263072 ], [ -2.5721081, 51.5262941 ], [ -2.5720753, 51.5264642 ], [ -2.5721049, 51.5264664 ], [ -2.5720991, 51.5264964 ], [ -2.572192, 51.5265034 ], [ -2.572194, 51.5264928 ], [ -2.5722466, 51.5264967 ], [ -2.5722831, 51.5263072 ] ] ] ] } },
{ "type": "Feature", "properties": { "osm_timestamp": "2021\/01\/07 10:39:55", "addr:city": "Burton-on-Trent", "addr:postcode": "DE13 0BB", "addr:street": "Eastern Avenue", "amenity": "cafe", "brand": "Costa", "brand:wikidata": "Q608845", "cuisine": "coffee_shop", "fhrs:id": "1247601", "name": "Costa" }, "geometry": { "type": "MultiPolygon", "coordinates": [ [ [ [ -1.6189172, 52.8271663 ], [ -1.6190967, 52.8270478 ], [ -1.618961, 52.8269729 ], [ -1.6187816, 52.8270914 ], [ -1.6189172, 52.8271663 ] ] ] ] } },
{ "type": "Feature", "properties": { "osm_timestamp": "2020\/05\/11 17:07:50", "amenity": "cafe", "brand": "Costa", "brand:wikidata": "Q608845", "cuisine": "coffee_shop", "internet_access": "wlan", "internet_access:fee": "customers", "name": "Costa", "outdoor_seating": "yes" }, "geometry": { "type": "MultiPolygon", "coordinates": [ [ [ [ -3.1614389, 55.9278963 ], [ -3.1617135, 55.9277219 ], [ -3.1618362, 55.9277826 ], [ -3.1616694, 55.9278885 ], [ -3.161657, 55.9278824 ], [ -3.1615492, 55.9279508 ], [ -3.1614389, 55.9278963 ] ] ] ] } },
{ "type": "Feature", "properties": { "osm_timestamp": "2019\/09\/18 10:51:03", "amenity": "cafe", "brand": "Starbucks", "brand:wikidata": "Q37158", "cuisine": "coffee_shop", "name": "Starbucks", "operator": "Starbucks" }, "geometry": { "type": "MultiPolygon", "coordinates": [ [ [ [ -3.5251027, 55.8801296 ], [ -3.5247432, 55.8802397 ], [ -3.5246488, 55.8801428 ], [ -3.5250083, 55.8800327 ], [ -3.5251027, 55.8801296 ] ] ] ] } },
{ "type": "Feature", "properties": { "osm_timestamp": "2020\/12\/28 18:31:54", "addr:postcode": "WS10 9QY", "addr:street": "Axletree Way", "amenity": "cafe", "brand": "Costa", "brand:wikidata": "Q608845", "cuisine": "coffee_shop", "fhrs:id": "845985", "name": "Costa" }, "geometry": { "type": "MultiPolygon", "coordinates": [ [ [ [ -2.0108558, 52.5675699 ], [ -2.0109746, 52.5676302 ], [ -2.0111423, 52.5675081 ], [ -2.0110619, 52.5674673 ], [ -2.0110242, 52.5674481 ], [ -2.010995, 52.5674693 ], [ -2.0109708, 52.5674571 ], [ -2.0109642, 52.5674619 ], [ -2.0109387, 52.5674803 ], [ -2.0109621, 52.5674923 ], [ -2.0109486, 52.567502 ], [ -2.0108558, 52.5675699 ] ] ] ] } },
{ "type": "Feature", "properties": { "osm_timestamp": "2019\/12\/05 00:07:20", "amenity": "cafe", "brand": "Starbucks", "brand:wikidata": "Q37158", "cuisine": "coffee_shop", "name": "Starbucks" }, "geometry": { "type": "MultiPolygon", "coordinates": [ [ [ [ -2.0947174, 57.1091905 ], [ -2.0943398, 57.1091142 ], [ -2.0943917, 57.1090385 ], [ -2.094633, 57.1090873 ], [ -2.0946421, 57.1090741 ], [ -2.0947327, 57.1090924 ], [ -2.0947249, 57.1091037 ], [ -2.0947706, 57.1091129 ], [ -2.0947174, 57.1091905 ] ] ] ] } },
{ "type": "Feature", "properties": { "osm_timestamp": "2020\/04\/29 23:54:23", "addr:city": "Chelmsford", "addr:street": "Eagle Way", "amenity": "cafe", "brand": "Costa", "brand:wikidata": "Q608845", "cuisine": "coffee_shop", "name": "Costa" }, "geometry": { "type": "MultiPolygon", "coordinates": [ [ [ [ 0.4866934, 51.770728 ], [ 0.4868881, 51.7707102 ], [ 0.486851, 51.7705547 ], [ 0.4866563, 51.7705725 ], [ 0.4866934, 51.770728 ] ] ] ] } },
{ "type": "Feature", "properties": { "osm_timestamp": "2021\/04\/21 23:27:27", "amenity": "cafe", "brand": "Costa", "brand:wikidata": "Q608845", "cuisine": "coffee_shop", "name": "Costa" }, "geometry": { "type": "MultiPolygon", "coordinates": [ [ [ [ -1.6749612, 54.9905762 ], [ -1.6747714, 54.9904702 ], [ -1.6746614, 54.9905351 ], [ -1.6748512, 54.990641 ], [ -1.6749612, 54.9905762 ] ] ] ] } },
{ "type": "Feature", "properties": { "osm_timestamp": "2019\/03\/11 14:56:25", "amenity": "cafe", "brand": "Starbucks", "brand:wikidata": "Q37158", "cuisine": "coffee_shop", "name": "Starbucks", "outdoor_seating": "yes" }, "geometry": { "type": "MultiPolygon", "coordinates": [ [ [ [ -0.3357659, 53.7677398 ], [ -0.3354784, 53.7677245 ], [ -0.3354931, 53.7676169 ], [ -0.3357767, 53.7676315 ], [ -0.3357659, 53.7677398 ] ] ] ] } },
{ "type": "Feature", "properties": { "osm_timestamp": "2020\/11\/23 11:22:57", "addr:city": "Peterborough", "addr:postcode": "PE2 5YA", "addr:street": "Ortongate Retail Park", "amenity": "cafe", "brand": "Starbucks", "brand:wikidata": "Q37158", "cuisine": "coffee_shop", "fhrs:id": "1253471", "internet_access": "wlan", "internet_access:fee": "no", "name": "Starbucks", "outdoor_seating": "yes", "ref": "1016432" }, "geometry": { "type": "MultiPolygon", "coordinates": [ [ [ [ -0.3049929, 52.5450866 ], [ -0.3049644, 52.5450776 ], [ -0.3049178, 52.5450631 ], [ -0.3048985, 52.5450572 ], [ -0.3047412, 52.5450056 ], [ -0.3047293, 52.5450192 ], [ -0.3047136, 52.5450141 ], [ -0.3046641, 52.5450703 ], [ -0.3046414, 52.5450996 ], [ -0.3046805, 52.5451122 ], [ -0.3046711, 52.545123 ], [ -0.3047383, 52.5451447 ], [ -0.3047526, 52.5451282 ], [ -0.3049606, 52.5451951 ], [ -0.3050054, 52.5451436 ], [ -0.3049572, 52.5451281 ], [ -0.3049739, 52.5451089 ], [ -0.3049929, 52.5450866 ] ] ] ] } },
{ "type": "Feature", "properties": { "osm_timestamp": "2019\/12\/28 14:59:17", "addr:city": "Weston-Super-Mare", "addr:country": "GB", "addr:postcode": "BS23 3YY", "addr:street": "Gallegher Retail Park", "amenity": "cafe", "brand": "Costa", "brand:wikidata": "Q608845", "cuisine": "coffee_shop", "fhrs:id": "1126326", "internet_access": "wlan", "internet_access:fee": "no", "name": "Costa", "outdoor_seating": "yes" }, "geometry": { "type": "MultiPolygon", "coordinates": [ [ [ [ -2.9634773, 51.3390056 ], [ -2.963572, 51.338932 ], [ -2.9634355, 51.3388634 ], [ -2.9634974, 51.3388152 ], [ -2.9632758, 51.338704 ], [ -2.9631193, 51.3388258 ], [ -2.9634773, 51.3390056 ] ] ] ] } },
{ "type": "Feature", "properties": { "osm_timestamp": "2019\/12\/18 22:14:00", "amenity": "cafe", "brand": "Costa", "brand:wikidata": "Q608845", "cuisine": "coffee_shop", "name": "Costa" }, "geometry": { "type": "MultiPolygon", "coordinates": [ [ [ [ -2.0710686, 52.5137638 ], [ -2.0711051, 52.5136054 ], [ -2.0708947, 52.5135874 ], [ -2.0708813, 52.5136455 ], [ -2.0709115, 52.5136481 ], [ -2.0708884, 52.5137484 ], [ -2.0710686, 52.5137638 ] ] ] ] } },
{ "type": "Feature", "properties": { "osm_timestamp": "2019\/06\/05 20:05:44", "amenity": "cafe", "cuisine": "coffee_shop", "fhrs:id": "1045956", "name": "Costa Drive Thru" }, "geometry": { "type": "MultiPolygon", "coordinates": [ [ [ [ -2.1426968, 52.0581487 ], [ -2.1427552, 52.0581033 ], [ -2.1426949, 52.0580739 ], [ -2.1426364, 52.0581194 ], [ -2.1426968, 52.0581487 ] ] ] ] } },
{ "type": "Feature", "properties": { "osm_timestamp": "2020\/12\/11 10:56:25", "addr:city": "Camborne", "addr:country": "GB", "addr:place": "Trevenson Gateway", "addr:postcode": "TR14 0BJ", "addr:street": "Gas Lane", "amenity": "cafe", "brand": "Costa", "brand:wikidata": "Q608845", "cuisine": "coffee_shop", "fhrs:id": "1094871", "internet_access": "yes", "internet_access:fee": "no", "name": "Costa", "operator": "Costa", "outdoor_seating": "yes" }, "geometry": { "type": "MultiPolygon", "coordinates": [ [ [ [ -5.2782735, 50.225119 ], [ -5.2783714, 50.2252048 ], [ -5.2781712, 50.2252983 ], [ -5.2780733, 50.2252125 ], [ -5.2782735, 50.225119 ] ] ] ] } },
{ "type": "Feature", "properties": { "osm_timestamp": "2020\/01\/24 16:26:39", "addr:city": "Backworth", "addr:postcode": "NE27 0FG", "addr:street": "Northumberland Park Way", "amenity": "cafe", "brand": "Costa", "brand:wikidata": "Q608845", "cuisine": "coffee_shop", "fhrs:id": "1084510", "name": "Costa" }, "geometry": { "type": "MultiPolygon", "coordinates": [ [ [ [ -1.5219312, 55.031892 ], [ -1.5216643, 55.031971 ], [ -1.5215726, 55.0318694 ], [ -1.5218395, 55.0317903 ], [ -1.5219312, 55.031892 ] ] ] ] } },
{ "type": "Feature", "properties": { "osm_timestamp": "2021\/01\/26 11:51:18", "addr:city": "Portsmouth", "addr:country": "GB", "addr:postcode": "PO6 4SR", "addr:street": "Binnacle Way", "amenity": "cafe", "brand": "Costa", "brand:wikidata": "Q608845", "cuisine": "coffee_shop", "fhrs:id": "92267", "name": "Costa" }, "geometry": { "type": "MultiPolygon", "coordinates": [ [ [ [ -1.0958697, 50.8462026 ], [ -1.0958742, 50.8461779 ], [ -1.0959069, 50.8461803 ], [ -1.0959024, 50.8462049 ], [ -1.0959211, 50.8462063 ], [ -1.0959087, 50.8462751 ], [ -1.0957802, 50.8462658 ], [ -1.0957065, 50.8462605 ], [ -1.095719, 50.8461917 ], [ -1.0958697, 50.8462026 ] ] ] ] } },
{ "type": "Feature", "properties": { "osm_timestamp": "2021\/03\/12 11:12:50", "addr:city": "Milton Keynes", "addr:country": "GB", "addr:postcode": "MK9 1EN", "addr:street": "The Place Retail Park", "amenity": "cafe", "brand": "Starbucks", "brand:wikidata": "Q37158", "cuisine": "coffee_shop", "fhrs:id": "629919", "name": "Starbucks", "outdoor_seating": "yes" }, "geometry": { "type": "MultiPolygon", "coordinates": [ [ [ [ -0.7774514, 52.0381551 ], [ -0.7773179, 52.0382106 ], [ -0.7774629, 52.0383425 ], [ -0.7775963, 52.038287 ], [ -0.7774514, 52.0381551 ] ] ] ] } },
{ "type": "Feature", "properties": { "osm_timestamp": "2020\/09\/29 21:28:11", "amenity": "cafe", "brand": "Starbucks", "brand:wikidata": "Q37158", "cuisine": "coffee_shop", "name": "Starbucks" }, "geometry": { "type": "MultiPolygon", "coordinates": [ [ [ [ 0.1545376, 51.4972297 ], [ 0.154708, 51.4972071 ], [ 0.1547207, 51.4972441 ], [ 0.1547263, 51.4972607 ], [ 0.1548142, 51.497249 ], [ 0.1548089, 51.4972335 ], [ 0.1547961, 51.4971961 ], [ 0.1549351, 51.4971777 ], [ 0.1549017, 51.4970801 ], [ 0.1547175, 51.4971046 ], [ 0.1547086, 51.4970786 ], [ 0.1547041, 51.4970653 ], [ 0.1545648, 51.4970838 ], [ 0.154491, 51.4970936 ], [ 0.1545376, 51.4972297 ] ] ] ] } },
{ "type": "Feature", "properties": { "osm_timestamp": "2020\/05\/18 11:08:11", "addr:city": "Blackburn", "addr:country": "GB", "addr:postcode": "BB2 3DY", "addr:street": "Lower Audley Street", "amenity": "cafe", "brand": "Costa", "brand:wikidata": "Q608845", "cuisine": "coffee_shop", "fhrs:id": "1132644", "name": "Costa" }, "geometry": { "type": "MultiPolygon", "coordinates": [ [ [ [ -2.4794026, 53.7420363 ], [ -2.4795797, 53.7419927 ], [ -2.4794409, 53.7417954 ], [ -2.4792637, 53.741839 ], [ -2.4794026, 53.7420363 ] ] ] ] } },
{ "type": "Feature", "properties": { "osm_timestamp": "2019\/09\/21 08:09:23", "addr:city": "Ashby-de-la-Zouch", "addr:postcode": "LE65 1JP", "addr:street": "Lountside", "amenity": "cafe", "brand": "Starbucks", "brand:wikidata": "Q37158", "cuisine": "coffee_shop", "fhrs:id": "1063900", "name": "Starbucks" }, "geometry": { "type": "MultiPolygon", "coordinates": [ [ [ [ -1.4488046, 52.7511507 ], [ -1.4484774, 52.751257 ], [ -1.4484042, 52.7511746 ], [ -1.4487315, 52.7510682 ], [ -1.4488046, 52.7511507 ] ] ] ] } },
{ "type": "Feature", "properties": { "osm_timestamp": "2019\/07\/19 18:45:18", "amenity": "cafe", "brand": "Costa", "brand:wikidata": "Q608845", "cuisine": "coffee_shop", "name": "Costa", "outdoor_seating": "yes" }, "geometry": { "type": "MultiPolygon", "coordinates": [ [ [ [ -2.0977721, 51.913245 ], [ -2.0978782, 51.9131978 ], [ -2.0976804, 51.9130285 ], [ -2.0975742, 51.9130757 ], [ -2.0976436, 51.9131351 ], [ -2.0977721, 51.913245 ] ] ] ] } },
{ "type": "Feature", "properties": { "osm_timestamp": "2021\/03\/20 19:39:05", "amenity": "cafe", "brand": "Starbucks", "brand:wikidata": "Q37158", "cuisine": "coffee_shop", "name": "Starbucks" }, "geometry": { "type": "MultiPolygon", "coordinates": [ [ [ [ 0.1963446, 51.8713357 ], [ 0.1963592, 51.8712058 ], [ 0.1962108, 51.8711995 ], [ 0.1961962, 51.8713294 ], [ 0.1963446, 51.8713357 ] ] ] ] } },
{ "type": "Feature", "properties": { "osm_timestamp": "2021\/04\/02 01:08:19", "amenity": "cafe", "brand": "Costa", "brand:wikidata": "Q608845", "cuisine": "coffee_shop", "name": "Costa" }, "geometry": { "type": "MultiPolygon", "coordinates": [ [ [ [ -1.3542876, 53.345647 ], [ -1.3541411, 53.3456045 ], [ -1.3542859, 53.3454267 ], [ -1.3544324, 53.3454693 ], [ -1.3542876, 53.345647 ] ] ] ] } },
{ "type": "Feature", "properties": { "osm_timestamp": "2021\/03\/19 22:20:07", "addr:city": "Letchworth Garden City", "addr:postcode": "SG6 2HB", "addr:street": "Avenue One", "amenity": "cafe", "brand": "Costa", "brand:wikidata": "Q608845", "cuisine": "coffee_shop", "name": "Costa", "outdoor_seating": "yes" }, "geometry": { "type": "MultiPolygon", "coordinates": [ [ [ [ -0.2086501, 51.9790551 ], [ -0.2083978, 51.9790887 ], [ -0.2083593, 51.9789791 ], [ -0.2086116, 51.9789457 ], [ -0.2086501, 51.9790551 ] ] ] ] } },
{ "type": "Feature", "properties": { "osm_timestamp": "2019\/09\/30 13:44:18", "amenity": "cafe", "brand": "Costa", "brand:wikidata": "Q608845", "cuisine": "coffee_shop", "name": "Costa" }, "geometry": { "type": "MultiPolygon", "coordinates": [ [ [ [ -4.085767, 50.3925597 ], [ -4.0860304, 50.392562 ], [ -4.0860327, 50.3924556 ], [ -4.0857693, 50.3924533 ], [ -4.085767, 50.3925597 ] ] ] ] } },
{ "type": "Feature", "properties": { "osm_timestamp": "2020\/11\/15 13:39:44", "addr:city": "Wellington", "addr:country": "GB", "addr:postcode": "TA21 9AD", "addr:street": "Westpark", "amenity": "cafe", "brand": "Costa", "brand:wikidata": "Q608845", "cuisine": "coffee_shop", "fhrs:id": "1250513", "internet_access": "wlan", "internet_access:fee": "customers", "name": "Costa", "outdoor_seating": "yes" }, "geometry": { "type": "MultiPolygon", "coordinates": [ [ [ [ -3.2048063, 50.980875 ], [ -3.2048775, 50.980671 ], [ -3.2046882, 50.9806448 ], [ -3.2046171, 50.9808488 ], [ -3.2048063, 50.980875 ] ] ] ] } },
{ "type": "Feature", "properties": { "osm_timestamp": "2020\/02\/04 06:01:44", "amenity": "cafe", "brand": "Costa", "brand:wikidata": "Q608845", "cuisine": "coffee_shop", "name": "Costa" }, "geometry": { "type": "MultiPolygon", "coordinates": [ [ [ [ -1.2945265, 51.7554204 ], [ -1.294695, 51.7553863 ], [ -1.29464, 51.7553124 ], [ -1.2943709, 51.7551995 ], [ -1.2942436, 51.7552826 ], [ -1.2945265, 51.7554204 ] ] ] ] } },
{ "type": "Feature", "properties": { "osm_timestamp": "2020\/10\/14 16:36:55", "addr:city": "Wakefield", "addr:postcode": "WF1 2GS", "addr:street": "Snowfield Avenue", "amenity": "cafe", "brand": "Starbucks", "brand:wikidata": "Q37158", "cuisine": "coffee_shop", "fhrs:id": "1211469", "name": "Starbucks" }, "geometry": { "type": "MultiPolygon", "coordinates": [ [ [ [ -1.5043662, 53.6960796 ], [ -1.5046663, 53.6960524 ], [ -1.5046955, 53.6961654 ], [ -1.5043954, 53.6961925 ], [ -1.5043662, 53.6960796 ] ] ] ] } },
{ "type": "Feature", "properties": { "osm_timestamp": "2020\/05\/22 15:51:16", "addr:postcode": "IV30 6LS", "addr:street": "Riverside Road", "amenity": "cafe", "brand": "Costa", "brand:wikidata": "Q608845", "cuisine": "coffee_shop", "fhrs:id": "1131744", "name": "Costa" }, "geometry": { "type": "MultiPolygon", "coordinates": [ [ [ [ -3.2803903, 57.6454271 ], [ -3.2801517, 57.6453613 ], [ -3.2800657, 57.6454508 ], [ -3.2803043, 57.6455165 ], [ -3.2803903, 57.6454271 ] ] ] ] } },
{ "type": "Feature", "properties": { "osm_timestamp": "2020\/03\/22 21:31:35", "addr:city": "Penzance", "addr:country": "GB", "addr:place": "St Michaels Retail Park", "addr:postcode": "TR18 3FH", "addr:street": "Eastern Green", "amenity": "cafe", "brand": "Costa", "brand:wikidata": "Q608845", "cuisine": "coffee_shop", "name": "Costa" }, "geometry": { "type": "MultiPolygon", "coordinates": [ [ [ [ -5.5164573, 50.1283511 ], [ -5.5162696, 50.1283807 ], [ -5.5162057, 50.1282138 ], [ -5.5163934, 50.1281843 ], [ -5.5164573, 50.1283511 ] ] ] ] } },
{ "type": "Feature", "properties": { "osm_timestamp": "2021\/01\/03 16:35:23", "amenity": "cafe", "brand": "Starbucks", "brand:wikidata": "Q37158", "cuisine": "coffee_shop", "name": "Starbucks" }, "geometry": { "type": "MultiPolygon", "coordinates": [ [ [ [ -1.0636576, 53.3897171 ], [ -1.0634666, 53.3897521 ], [ -1.0633841, 53.3895923 ], [ -1.0635736, 53.3895569 ], [ -1.0636576, 53.3897171 ] ] ] ] } },
{ "type": "Feature", "properties": { "osm_timestamp": "2020\/06\/10 19:59:18", "addr:city": "Newcastle upon Tyne", "addr:country": "GB", "addr:postcode": "NE3 5EH", "addr:street": "Rotary Way", "amenity": "cafe", "brand": "Costa", "brand:wikidata": "Q608845", "cuisine": "coffee_shop", "fhrs:id": "1062033", "name": "Costa" }, "geometry": { "type": "MultiPolygon", "coordinates": [ [ [ [ -1.6272625, 55.0359991 ], [ -1.6270636, 55.0360143 ], [ -1.6270255, 55.0358505 ], [ -1.6272244, 55.0358353 ], [ -1.6272625, 55.0359991 ] ] ] ] } },
{ "type": "Feature", "properties": { "osm_timestamp": "2020\/05\/01 15:55:31", "amenity": "cafe", "brand": "Costa", "brand:wikidata": "Q608845", "cuisine": "coffee_shop", "name": "Costa" }, "geometry": { "type": "MultiPolygon", "coordinates": [ [ [ [ -1.3239171, 53.4422976 ], [ -1.3237079, 53.4423824 ], [ -1.3236458, 53.4423282 ], [ -1.3238551, 53.4422433 ], [ -1.3239171, 53.4422976 ] ] ] ] } },
{ "type": "Feature", "properties": { "osm_timestamp": "2020\/06\/22 21:50:20", "amenity": "cafe", "brand": "Starbucks", "brand:wikidata": "Q37158", "cuisine": "coffee_shop", "name": "Starbucks" }, "geometry": { "type": "MultiPolygon", "coordinates": [ [ [ [ -1.7207151, 53.7357199 ], [ -1.7206754, 53.7356615 ], [ -1.7206554, 53.7356662 ], [ -1.7206299, 53.7356286 ], [ -1.7203446, 53.7356963 ], [ -1.7203522, 53.7357075 ], [ -1.7203027, 53.7357192 ], [ -1.7203528, 53.735793 ], [ -1.7204902, 53.7357604 ], [ -1.7204977, 53.7357715 ], [ -1.7207151, 53.7357199 ] ] ] ] } },
{ "type": "Feature", "properties": { "osm_timestamp": "2020\/07\/07 17:26:53", "addr:city": "Perth", "addr:postcode": "PH1 3GA", "addr:street": "The Triangle", "amenity": "cafe", "brand": "Starbucks", "brand:wikidata": "Q37158", "cuisine": "coffee_shop", "fhrs:id": "1063268", "name": "Starbucks" }, "geometry": { "type": "MultiPolygon", "coordinates": [ [ [ [ -3.4637799, 56.4192693 ], [ -3.4638157, 56.4190237 ], [ -3.463294, 56.4190005 ], [ -3.4632583, 56.419246 ], [ -3.4637799, 56.4192693 ] ] ] ] } },
{ "type": "Feature", "properties": { "osm_timestamp": "2020\/07\/25 11:14:28", "addr:city": "Ilminster", "addr:country": "GB", "addr:postcode": "TA19 9FF", "addr:street": "Southfields Enterprise Park", "amenity": "cafe", "brand": "Costa", "brand:wikidata": "Q608845", "cuisine": "coffee_shop", "name": "Costa", "outdoor_seating": "yes" }, "geometry": { "type": "MultiPolygon", "coordinates": [ [ [ [ -2.9362448, 50.9330245 ], [ -2.936357, 50.9327616 ], [ -2.9361216, 50.9327217 ], [ -2.9360094, 50.9329846 ], [ -2.9362448, 50.9330245 ] ] ] ] } },
{ "type": "Feature", "properties": { "osm_timestamp": "2020\/07\/27 19:44:33", "amenity": "cafe", "brand": "Costa", "brand:wikidata": "Q608845", "cuisine": "coffee_shop", "name": "Costa", "outdoor_seating": "no" }, "geometry": { "type": "MultiPolygon", "coordinates": [ [ [ [ -2.6533477, 53.5438365 ], [ -2.65316, 53.5438493 ], [ -2.6531144, 53.5436548 ], [ -2.6533155, 53.5436373 ], [ -2.6533477, 53.5438365 ] ] ] ] } },
{ "type": "Feature", "properties": { "osm_timestamp": "2020\/07\/28 08:03:32", "amenity": "cafe", "brand": "Starbucks", "brand:wikidata": "Q37158", "cuisine": "coffee_shop", "name": "Starbucks", "outdoor_seating": "no" }, "geometry": { "type": "MultiPolygon", "coordinates": [ [ [ [ -2.66546, 53.5519207 ], [ -2.6653607, 53.5518488 ], [ -2.6656267, 53.5517191 ], [ -2.665726, 53.551791 ], [ -2.66546, 53.5519207 ] ] ] ] } },
{ "type": "Feature", "properties": { "osm_timestamp": "2020\/10\/15 22:51:55", "addr:city": "Aberdeen", "addr:postcode": "AB12 3AF", "addr:street": "Abbotswell Road", "amenity": "cafe", "brand": "Costa", "brand:wikidata": "Q608845", "cuisine": "coffee_shop", "internet_access": "wlan", "internet_access:fee": "no", "name": "Costa", "outdoor_seating": "yes" }, "geometry": { "type": "MultiPolygon", "coordinates": [ [ [ [ -2.0924472, 57.1279907 ], [ -2.0922498, 57.1280318 ], [ -2.0922161, 57.127984 ], [ -2.0921935, 57.1279962 ], [ -2.0921649, 57.1279558 ], [ -2.0921918, 57.1279502 ], [ -2.0921196, 57.127848 ], [ -2.0923173, 57.1278068 ], [ -2.0923223, 57.127814 ], [ -2.0924472, 57.1279907 ] ] ] ] } },
{ "type": "Feature", "properties": { "osm_timestamp": "2020\/11\/12 19:25:11", "amenity": "cafe", "brand": "Costa", "brand:wikidata": "Q608845", "cuisine": "coffee_shop", "name": "Costa" }, "geometry": { "type": "MultiPolygon", "coordinates": [ [ [ [ 0.1670557, 51.5462149 ], [ 0.1671402, 51.5461198 ], [ 0.1673776, 51.5461999 ], [ 0.1672985, 51.5462949 ], [ 0.1670557, 51.5462149 ] ] ] ] } },
{ "type": "Feature", "properties": { "osm_timestamp": "2021\/02\/22 20:13:16", "addr:city": "Stroud", "addr:country": "GB", "addr:postcode": "GL10 3UT", "addr:street": "Sperry Way", "amenity": "cafe", "brand": "Costa", "brand:wikidata": "Q608845", "cuisine": "coffee_shop", "fhrs:id": "1263866", "name": "Costa", "outdoor_seating": "yes" }, "geometry": { "type": "MultiPolygon", "coordinates": [ [ [ [ -2.3004261, 51.7468328 ], [ -2.3003088, 51.7467692 ], [ -2.3004799, 51.746645 ], [ -2.3006022, 51.7467162 ], [ -2.3004261, 51.7468328 ] ] ] ] } },
{ "type": "Feature", "properties": { "osm_timestamp": "2021\/04\/25 19:28:02", "addr:city": "Corby", "addr:country": "GB", "addr:place": "Weldon", "addr:postcode": "NN17 3HT", "addr:street": "Corby Road", "amenity": "cafe", "brand": "Starbucks", "brand:wikidata": "Q37158", "cuisine": "coffee_shop", "fhrs:id": "1047278", "name": "Starbucks" }, "geometry": { "type": "MultiPolygon", "coordinates": [ [ [ [ -0.6512752, 52.4963212 ], [ -0.6515005, 52.4963163 ], [ -0.6514952, 52.4962069 ], [ -0.6512645, 52.4962134 ], [ -0.6512752, 52.4963212 ] ] ] ] } },
{ "type": "Feature", "properties": { "osm_timestamp": "2020\/12\/04 14:12:19", "amenity": "cafe", "name": "Starbucks" }, "geometry": { "type": "MultiPolygon", "coordinates": [ [ [ [ -1.9117607, 52.4497254 ], [ -1.9118602, 52.4497572 ], [ -1.9119422, 52.4496618 ], [ -1.9118426, 52.44963 ], [ -1.9117607, 52.4497254 ] ] ] ] } },
{ "type": "Feature", "properties": { "osm_timestamp": "2021\/03\/16 09:54:20", "amenity": "cafe", "brand": "Starbucks", "brand:wikidata": "Q37158", "cuisine": "coffee_shop", "name": "Starbucks" }, "geometry": { "type": "MultiPolygon", "coordinates": [ [ [ [ -6.3923275, 54.4462786 ], [ -6.3924443, 54.4463609 ], [ -6.3922319, 54.4464679 ], [ -6.3921399, 54.4464514 ], [ -6.3920691, 54.4464082 ], [ -6.3923275, 54.4462786 ] ] ] ] } },
{ "type": "Feature", "properties": { "osm_timestamp": "2021\/03\/24 15:43:24", "amenity": "cafe", "brand": "Costa", "brand:wikidata": "Q608845", "cuisine": "coffee_shop", "internet_access": "wlan", "internet_access:fee": "customers", "name": "Costa", "outdoor_seating": "yes" }, "geometry": { "type": "MultiPolygon", "coordinates": [ [ [ [ -3.0012417, 51.1023261 ], [ -3.0009711, 51.1022331 ], [ -3.0007303, 51.1025095 ], [ -3.0010009, 51.1026025 ], [ -3.0012417, 51.1023261 ] ] ] ] } }
]
}
