{
"type": "FeatureCollection",
"name": "points",
"crs": { "type": "name", "properties": { "name": "urn:ogc:def:crs:OGC:1.3:CRS84" } },
"features": [
{ "type": "Feature", "properties": { "osm_timestamp": "2022\/07\/17 19:42:32+00", "addr:city": "Derby", "addr:place": "Moto Donington Park Services", "addr:postcode": "DE74 2TN", "addr:street": "Ashby Road", "addr:village": "Castle Donington", "amenity": "cafe", "brand": "Costa", "brand:wikidata": "Q608845", "cuisine": "coffee_shop", "fhrs:id": "1403060", "name": "Costa" }, "geometry": { "type": "Point", "coordinates": [ -1.307626, 52.8227527 ] } },
{ "type": "Feature", "properties": { "osm_timestamp": "2021\/01\/09 22:57:04+00", "amenity": "cafe", "brand": "Costa", "brand:wikidata": "Q608845", "cuisine": "coffee_shop", "name": "Costa" }, "geometry": { "type": "Point", "coordinates": [ -1.7585831, 51.1767601 ] } },
{ "type": "Feature", "properties": { "osm_timestamp": "2020\/10\/10 17:12:10+00", "addr:postcode": "CH2 4QZ", "amenity": "cafe", "brand": "Costa", "brand:wikidata": "Q608845", "cuisine": "coffee_shop", "fhrs:id": "996322", "name": "Costa" }, "geometry": { "type": "Point", "coordinates": [ -2.8027064, 53.2677876 ] } },
{ "type": "Feature", "properties": { "osm_timestamp": "2022\/04\/09 17:40:15+00", "addr:city": "East Grinstead", "addr:postcode": "RH19 1AG", "addr:street": "London Road", "amenity": "cafe", "brand": "Costa", "brand:wikidata": "Q608845", "cuisine": "coffee_shop", "fhrs:id": "209508", "internet_access": "yes", "internet_access:fee": "no", "name": "Costa", "outdoor_seating": "no" }, "geometry": { "type": "Point", "coordinates": [ -0.0087855, 51.1249856 ] } },
{ "type": "Feature", "properties": { "osm_timestamp": "2022\/07\/14 01:24:22+00", "addr:city": "Malvern", "addr:postcode": "WR14 2AE", "addr:street": "Church Street", "amenity": "cafe", "brand": "Costa", "brand:wikidata": "Q608845", "cuisine": "coffee_shop", "fhrs:id": "684596", "name": "Costa" }, "geometry": { "type": "Point", "coordinates": [ -2.3270917, 52.111606 ] } },
{ "type": "Feature", "properties": { "osm_timestamp": "2022\/08\/19 11:06:05+00", "addr:city": "Matlock", "addr:postcode": "DE4 2EU", "addr:street": "Dale Road South", "amenity": "cafe", "brand": "Costa Express", "brand:wikidata": "Q113556385", "cuisine": "coffee_shop", "name": "Costa Express" }, "geometry": { "type": "Point", "coordinates": [ -1.5869363, 53.1608687 ] } },
{ "type": "Feature", "properties": { "osm_timestamp": "2022\/07\/07 15:21:26+00", "addr:city": "Kempston", "addr:country": "GB", "addr:postcode": "MK42 7AZ", "addr:street": "Riley Way", "amenity": "cafe", "brand": "Costa", "brand:wikidata": "Q608845", "cuisine": "coffee_shop", "fhrs:id": "965845", "name": "Costa" }, "geometry": { "type": "Point", "coordinates": [ -0.4809679, 52.1099348 ] } },
{ "type": "Feature", "properties": { "osm_timestamp": "2022\/01\/09 15:02:26+00", "addr:city": "Market Harborough", "addr:country": "GB", "addr:postcode": "LE16 7DR", "addr:street": "St Mary's Place", "amenity": "cafe", "brand": "Costa", "brand:wikidata": "Q608845", "cuisine": "coffee_shop", "fhrs:id": "355075", "name": "Costa" }, "geometry": { "type": "Point", "coordinates": [ -0.9187985, 52.4774275 ] } },
{ "type": "Feature", "properties": { "osm_timestamp": "2021\/08\/28 22:49:50+00", "addr:postcode": "ST5 5HG", "addr:street": "Three Mile Lane", "amenity": "cafe", "brand": "Starbucks", "brand:wikidata": "Q37158", "cuisine": "coffee_shop", "fhrs:id": "830891", "name": "Starbucks" }, "geometry": { "type": "Point", "coordinates": [ -2.289459, 52.9942951 ] } },
{ "type": "Feature", "properties": { "osm_timestamp": "2022\/01\/20 12:24:55+00", "addr:city": "Daventry", "addr:country": "GB", "addr:postcode": "NN11 4DR", "addr:street": "Bowen Square", "amenity": "cafe", "brand": "Costa", "brand:wikidata": "Q608845", "cuisine": "coffee_shop", "fhrs:id": "733433", "name": "Costa" }, "geometry": { "type": "Point", "coordinates": [ -1.1615682, 52.2572718 ] } },
{ "type": "Feature", "properties": { "osm_timestamp": "2021\/01\/01 20:12:41+00", "amenity": "cafe", "brand": "Costa", "brand:wikidata": "Q608845", "cuisine": "coffee_shop", "name": "Costa" }, "geometry": { "type": "Point", "coordinates": [ -0.3097112, 51.5321997 ] } },
{ "type": "Feature", "properties": { "osm_timestamp": "2018\/01\/16 21:25:29+00" }, "geometry": { "type": "Point", "coordinates": [ -2.3435789, 53.4667647 ] } },
{ "type": "Feature", "properties": { "osm_timestamp": "2022\/03\/16 22:52:49+00", "addr:city": "Haverfordwest", "addr:postcode": "SA61 2PY", "addr:street": "Withybush Retail Park", "amenity": "cafe", "brand": "Costa", "brand:wikidata": "Q608845", "cuisine": "coffee_shop", "name": "Costa Drive Thru", "outdoor_seating": "no" }, "geometry": { "type": "Point", "coordinates": [ -4.9638428, 51.8116168 ] } },
{ "type": "Feature", "properties": { "osm_timestamp": "2022\/01\/12 11:10:02+00", "addr:city": "Derby", "addr:place": "The Meteor Centre", "addr:postcode": "DE21 4SY", "amenity": "cafe", "brand": "Costa", "brand:wikidata": "Q608845", "cuisine": "coffee_shop", "fhrs:id": "1068248", "name": "Costa" }, "geometry": { "type": "Point", "coordinates": [ -1.4641335, 52.9401239 ] } },
{ "type": "Feature", "properties": { "osm_timestamp": "2021\/01\/26 21:14:10+00", "addr:city": "Pocklington", "addr:postcode": "YO42 1AD", "addr:street": "York Road", "amenity": "cafe", "brand": "Starbucks", "brand:wikidata": "Q37158", "cuisine": "coffee_shop", "internet_access": "yes", "name": "Starbucks", "outdoor_seating": "yes" }, "geometry": { "type": "Point", "coordinates": [ -0.7953471, 53.9208438 ] } },
{ "type": "Feature", "properties": { "osm_timestamp": "2019\/03\/13 12:50:22+00" }, "geometry": { "type": "Point", "coordinates": [ -2.1023051, 51.9158291 ] } },
{ "type": "Feature", "properties": { "osm_timestamp": "2019\/02\/04 20:34:17+00" }, "geometry": { "type": "Point", "coordinates": [ -1.0957802, 50.8462658 ] } },
{ "type": "Feature", "properties": { "osm_timestamp": "2021\/09\/26 14:51:48+00", "amenity": "cafe", "brand": "Costa", "brand:wikidata": "Q608845", "cuisine": "coffee_shop", "name": "Costa" }, "geometry": { "type": "Point", "coordinates": [ -2.7426108, 53.4515325 ] } },
{ "type": "Feature", "properties": { "osm_timestamp": "2021\/01\/03 16:18:59+00", "amenity": "cafe", "brand": "Costa", "brand:wikidata": "Q608845", "cuisine": "coffee_shop", "name": "Costa" }, "geometry": { "type": "Point", "coordinates": [ -2.2738998, 53.5762725 ] } },
{ "type": "Feature", "properties": { "osm_timestamp": "2019\/07\/19 18:45:18+00" }, "geometry": { "type": "Point", "coordinates": [ -2.0976436, 51.9131351 ] } },
{ "type": "Feature", "properties": { "osm_timestamp": "2021\/03\/09 17:52:26+00", "addr:city": "Stotfold", "addr:country": "GB", "addr:postcode": "SG5 4BL", "addr:street": "Great North Road", "amenity": "cafe", "brand": "Costa Coffee", "cuisine": "coffee_shop", "name": "Costa Coffee" }, "geometry": { "type": "Point", "coordinates": [ -0.2150917, 52.0288253 ] } },
{ "type": "Feature", "properties": { "osm_timestamp": "2021\/06\/05 08:09:25+00", "addr:city": "Portsmouth", "addr:country": "GB", "addr:postcode": "PO3 5NA", "addr:street": "Burrfields Road", "amenity": "cafe", "brand": "Starbucks", "brand:wikidata": "Q37158", "cuisine": "coffee_shop", "fhrs:id": "1008042", "internet_access": "wlan", "internet_access:fee": "no", "name": "Starbucks", "outdoor_seating": "yes" }, "geometry": { "type": "Point", "coordinates": [ -1.0561415, 50.8168742 ] } },
{ "type": "Feature", "properties": { "osm_timestamp": "2021\/11\/08 15:17:58+00", "amenity": "cafe", "brand": "Costa", "brand:wikidata": "Q608845", "cuisine": "coffee_shop", "name": "Costa", "outdoor_seating": "no" }, "geometry": { "type": "Point", "coordinates": [ -1.1219169, 52.307696 ] } },
{ "type": "Feature", "properties": { "osm_timestamp": "2020\/10\/13 19:44:29+00", "amenity": "cafe", "brand": "Starbucks", "brand:wikidata": "Q37158", "cuisine": "coffee_shop", "name": "Starbucks" }, "geometry": { "type": "Point", "coordinates": [ -1.7694672, 53.6575229 ] } },
{ "type": "Feature", "properties": { "osm_timestamp": "2022\/05\/04 11:26:03+00", "addr:postcode": "ST4 2LX", "addr:street": "Victoria Place", "amenity": "cafe", "brand": "Costa", "brand:wikidata": "Q608845", "cuisine": "coffee_shop", "name": "Costa" }, "geometry": { "type": "Point", "coordinates": [ -2.1587009, 52.9981412 ] } },
{ "type": "Feature", "properties": { "osm_timestamp": "2020\/08\/23 19:08:28+00" }, "geometry": { "type": "Point", "coordinates": [ -2.0110619, 52.5674673 ] } },
{ "type": "Feature", "properties": { "osm_timestamp": "2020\/11\/17 05:49:38+00", "amenity": "cafe", "brand": "Starbucks", "brand:wikidata": "Q37158", "cuisine": "coffee_shop", "name": "Starbucks" }, "geometry": { "type": "Point", "coordinates": [ -3.576599, 51.5351229 ] } },
{ "type": "Feature", "properties": { "osm_timestamp": "2022\/05\/02 05:55:22+00", "addr:city": "Liverpool", "addr:postcode": "L13 1AA", "addr:street": "Edge Lane", "amenity": "cafe", "brand": "Starbucks", "brand:wikidata": "Q37158", "cuisine": "coffee_shop", "fhrs:id": "1125303", "name": "Starbucks" }, "geometry": { "type": "Point", "coordinates": [ -2.9203141, 53.4103289 ] } },
{ "type": "Feature", "properties": { "osm_timestamp": "2020\/12\/23 18:38:11+00", "amenity": "cafe", "cuisine": "coffee_shop", "name": "Costa" }, "geometry": { "type": "Point", "coordinates": [ -4.1924885, 57.4665626 ] } },
{ "type": "Feature", "properties": { "osm_timestamp": "2021\/05\/10 21:43:42+00", "addr:city": "Gosport", "addr:country": "GB", "addr:postcode": "PO12 4FA", "addr:street": "Cotsworth Road", "amenity": "cafe", "brand": "Costa", "brand:wikidata": "Q608845", "cuisine": "coffee_shop", "fhrs:id": "1108764", "name": "Costa", "outdoor_seating": "yes" }, "geometry": { "type": "Point", "coordinates": [ -1.157805, 50.8178653 ] } },
{ "type": "Feature", "properties": { "osm_timestamp": "2021\/04\/01 11:52:56+00", "amenity": "cafe", "brand": "Starbucks", "brand:wikidata": "Q37158", "cuisine": "coffee_shop", "name": "Starbucks" }, "geometry": { "type": "Point", "coordinates": [ -2.734207, 53.7623553 ] } },
{ "type": "Feature", "properties": { "osm_timestamp": "2021\/08\/25 14:00:49+00", "addr:city": "Derby", "addr:postcode": "DE24 8ZY", "addr:street": "Murdoch Road", "amenity": "cafe", "brand": "Starbucks", "brand:wikidata": "Q37158", "cuisine": "coffee_shop", "fhrs:id": "1399052", "name": "Starbucks" }, "geometry": { "type": "Point", "coordinates": [ -1.4495443, 52.9124321 ] } },
{ "type": "Feature", "properties": { "osm_timestamp": "2021\/06\/16 21:17:51+00", "addr:city": "London", "addr:country": "GB", "addr:postcode": "E6 6LG", "addr:street": "Claps Gate Lane", "amenity": "cafe", "brand": "Starbucks", "brand:wikidata": "Q37158", "cuisine": "coffee_shop", "fhrs:id": "1028279", "name": "Starbucks" }, "geometry": { "type": "Point", "coordinates": [ 0.0723794, 51.5214056 ] } },
{ "type": "Feature", "properties": { "osm_timestamp": "2022\/09\/04 20:09:50+00", "amenity": "cafe", "brand": "Starbucks", "brand:wikidata": "Q37158", "cuisine": "coffee_shop", "name": "Starbucks" }, "geometry": { "type": "Point", "coordinates": [ 0.717786, 51.5450365 ] } },
{ "type": "Feature", "properties": { "osm_timestamp": "2021\/11\/28 23:03:07+00", "amenity": "cafe", "brand": "Starbucks", "brand:wikidata": "Q37158", "cuisine": "coffee_shop", "name": "Starbucks" }, "geometry": { "type": "Point", "coordinates": [ -4.4689262, 55.8444233 ] } },
{ "type": "Feature", "properties": { "osm_timestamp": "2021\/09\/17 22:05:38+00" }, "geometry": { "type": "Point", "coordinates": [ 0.2499384, 51.8754551 ] } },
{ "type": "Feature", "properties": { "osm_timestamp": "2021\/07\/02 16:35:10+00", "amenity": "cafe", "brand": "Costa", "brand:wikidata": "Q608845", "cuisine": "coffee_shop", "name": "Costa" }, "geometry": { "type": "Point", "coordinates": [ -1.4161554, 53.1729625 ] } },
{ "type": "Feature", "properties": { "osm_timestamp": "2022\/08\/09 10:50:56+00", "amenity": "cafe", "brand": "Costa", "brand:wikidata": "Q608845", "cuisine": "coffee_shop", "name": "Costa", "outdoor_seating": "yes" }, "geometry": { "type": "Point", "coordinates": [ -3.4997327, 53.2665244 ] } },
{ "type": "Feature", "properties": { "osm_timestamp": "2021\/10\/29 08:13:29+00", "amenity": "cafe", "brand": "Starbucks", "cuisine": "coffee_shop", "name": "Starbucks" }, "geometry": { "type": "Point", "coordinates": [ -3.0868377, 55.8812116 ] } },
{ "type": "Feature", "properties": { "osm_timestamp": "2021\/11\/07 20:52:19+00" }, "geometry": { "type": "Point", "coordinates": [ -2.1354447, 51.8915379 ] } },
{ "type": "Feature", "properties": { "osm_timestamp": "2021\/11\/28 00:23:33+00" }, "geometry": { "type": "Point", "coordinates": [ -2.9768485, 53.1693932 ] } },
{ "type": "Feature", "properties": { "osm_timestamp": "2021\/12\/28 18:26:40+00", "amenity": "cafe", "brand": "Costa", "brand:wikidata": "Q608845", "cuisine": "coffee_shop", "name": "Costa", "outdoor_seating": "yes" }, "geometry": { "type": "Point", "coordinates": [ -2.8136507, 55.9544799 ] } },
{ "type": "Feature", "properties": { "osm_timestamp": "2021\/11\/29 10:40:21+00", "amenity": "cafe", "brand": "Starbucks", "brand:wikidata": "Q37158", "cuisine": "coffee_shop", "name": "Starbucks" }, "geometry": { "type": "Point", "coordinates": [ -4.2421389, 55.8375552 ] } },
{ "type": "Feature", "properties": { "osm_timestamp": "2022\/06\/25 07:14:11+00", "addr:city": "Derby", "addr:place": "Sinfin District Centre", "addr:postcode": "DE24 3DS", "amenity": "cafe", "brand": "Starbucks", "brand:wikidata": "Q37158", "cuisine": "coffee_shop", "fhrs:id": "1432249", "name": "Starbucks" }, "geometry": { "type": "Point", "coordinates": [ -1.4960839, 52.8766189 ] } },
{ "type": "Feature", "properties": { "osm_timestamp": "2021\/12\/13 01:20:36+00" }, "geometry": { "type": "Point", "coordinates": [ -2.5277175, 53.4193014 ] } },
{ "type": "Feature", "properties": { "osm_timestamp": "2022\/01\/13 21:00:32+00", "addr:city": "Newport", "addr:country": "GB", "addr:postcode": "NP20 2NS", "addr:street": "Docks Way", "amenity": "cafe", "brand": "Starbucks", "brand:wikidata": "Q37158", "cuisine": "coffee_shop", "name": "Starbucks" }, "geometry": { "type": "Point", "coordinates": [ -2.9998067, 51.5706057 ] } },
{ "type": "Feature", "properties": { "osm_timestamp": "2022\/03\/16 20:36:08+00", "addr:city": "Edinburgh", "addr:place": "Moray Park", "addr:postcode": "EH7 5TS", "amenity": "cafe", "brand": "Costa", "brand:wikidata": "Q608845", "cuisine": "coffee_shop", "fhrs:id": "1450612", "name": "Costa Coffee", "outdoor_seating": "yes" }, "geometry": { "type": "Point", "coordinates": [ -3.163812, 55.9577815 ] } },
{ "type": "Feature", "properties": { "osm_timestamp": "2022\/02\/15 14:12:32+00", "addr:city": "Blackpool", "addr:postcode": "FY4 3AW", "addr:street": "Squires Gate Lane", "amenity": "cafe", "brand": "Costa", "brand:wikidata": "Q608845", "cuisine": "coffee_shop", "name": "Costa Drive Thru" }, "geometry": { "type": "Point", "coordinates": [ -3.0327045, 53.7803483 ] } },
{ "type": "Feature", "properties": { "osm_timestamp": "2022\/07\/30 17:09:24+00", "amenity": "cafe", "name": "Starbucks" }, "geometry": { "type": "Point", "coordinates": [ -1.5382576, 54.7804261 ] } },
{ "type": "Feature", "properties": { "osm_timestamp": "2022\/08\/16 16:12:23+00", "addr:city": "Reading", "addr:postcode": "RG30 3UQ", "addr:street": "Moto Reading Services", "amenity": "cafe", "brand": "Costa", "brand:wikidata": "Q608845", "cuisine": "coffee_shop", "name": "Costa Drive Thru", "outdoor_seating": "no" }, "geometry": { "type": "Point", "coordinates": [ -1.0359711, 51.4233709 ] } },
{ "type": "Feature", "properties": { "osm_timestamp": "2022\/08\/16 16:12:23+00", "addr:city": "Reading", "addr:postcode": "RG30 3UQ", "addr:street": "Moto Reading Services", "amenity": "cafe", "brand": "Costa", "brand:wikidata": "Q608845", "cuisine": "coffee_shop", "name": "Costa Drive Thru", "outdoor_seating": "no" }, "geometry": { "type": "Point", "coordinates": [ -1.0337787, 51.4258672 ] } },
{ "type": "Feature", "properties": { "osm_timestamp": "2022\/09\/02 13:29:37+00", "amenity": "cafe", "brand": "Costa", "brand:wikidata": "Q608845", "cuisine": "coffee_shop", "name": "Costa Drive Thru" }, "geometry": { "type": "Point", "coordinates": [ -1.199173, 51.9491242 ] } },
{ "type": "Feature", "properties": { "osm_timestamp": "2022\/09\/10 19:12:06+00" }, "geometry": { "type": "Point", "coordinates": [ -3.485879, 50.7083408 ] } }
]
}
