{
"type": "FeatureCollection",
"name": "multipolygons",
"crs": { "type": "name", "properties": { "name": "urn:ogc:def:crs:OGC:1.3:CRS84" } },
"features": [
{ "type": "Feature", "properties": { "osm_timestamp": "2022\/06\/28 12:44:41", "addr:city": "Broughton", "addr:postcode": "CH4 0DP", "addr:street": "Chester Road", "amenity": "cafe", "brand": "Tim Hortons", "brand:wikidata": "Q175106", "cuisine": "coffee_shop", "internet_access": "wlan", "internet_access:fee": "customers", "name": "Tim Hortons" }, "geometry": { "type": "MultiPolygon", "coordinates": [ [ [ [ -2.9767777, 53.169505 ], [ -2.9767783, 53.1694987 ], [ -2.9768208, 53.1694919 ], [ -2.9768306, 53.1694284 ], [ -2.9768454, 53.1694216 ], [ -2.9768485, 53.1693932 ], [ -2.9768511, 53.1693687 ], [ -2.9768386, 53.1693587 ], [ -2.9768508, 53.1692639 ], [ -2.9766275, 53.1692557 ], [ -2.9765989, 53.1694996 ], [ -2.976645, 53.169501 ], [ -2.9766976, 53.1695026 ], [ -2.9767777, 53.169505 ] ] ] ] } },
{ "type": "Feature", "properties": { "osm_timestamp": "2021\/10\/15 22:55:31", "addr:city": "Perth", "addr:postcode": "PH1 5RG", "addr:street": "Dunkeld Road", "amenity": "cafe", "brand": "Tim Hortons", "brand:wikidata": "Q175106", "cuisine": "coffee_shop", "name": "Tim Hortons" }, "geometry": { "type": "MultiPolygon", "coordinates": [ [ [ [ -3.4387673, 56.4007166 ], [ -3.438914, 56.4006427 ], [ -3.4386085, 56.4004569 ], [ -3.4384618, 56.4005308 ], [ -3.4387673, 56.4007166 ] ] ] ] } },
{ "type": "Feature", "properties": { "osm_timestamp": "2020\/01\/09 22:13:55", "amenity": "cafe", "brand": "Starbucks", "brand:wikidata": "Q37158", "cuisine": "coffee_shop", "name": "Starbucks" }, "geometry": { "type": "MultiPolygon", "coordinates": [ [ [ [ -1.5577005, 51.4804906 ], [ -1.5575289, 51.4804196 ], [ -1.5574623, 51.4804819 ], [ -1.5573955, 51.4804542 ], [ -1.557317, 51.4805277 ], [ -1.5573839, 51.4805554 ], [ -1.5573489, 51.4805882 ], [ -1.5574408, 51.4806263 ], [ -1.5575205, 51.4806593 ], [ -1.5576588, 51.4805297 ], [ -1.5577005, 51.4804906 ] ] ] ] } },
{ "type": "Feature", "properties": { "osm_timestamp": "2022\/08\/06 18:18:22", "addr:city": "Preston", "addr:place": "Queens Retail Park", "addr:postcode": "PR1 4HZ", "addr:street": "Queen Street", "amenity": "cafe", "brand": "Costa", "brand:wikidata": "Q608845", "cuisine": "coffee_shop", "fhrs:id": "972878", "name": "Costa" }, "geometry": { "type": "MultiPolygon", "coordinates": [ [ [ [ -2.6884883, 53.760392 ], [ -2.6886535, 53.7605307 ], [ -2.6885169, 53.7605876 ], [ -2.6883517, 53.7604488 ], [ -2.6884883, 53.760392 ] ] ] ] } },
{ "type": "Feature", "properties": { "osm_timestamp": "2022\/09\/03 22:17:56", "addr:city": "Warrington", "addr:postcode": "WA5 7YA", "addr:street": "Apollo Park", "amenity": "cafe", "brand": "Starbucks", "brand:wikidata": "Q37158", "cuisine": "coffee_shop", "fhrs:id": "804245", "internet_access": "wlan", "internet_access:fee": "no", "name": "Starbucks", "outdoor_seating": "yes" }, "geometry": { "type": "MultiPolygon", "coordinates": [ [ [ [ -2.6403072, 53.4157946 ], [ -2.6401029, 53.4157166 ], [ -2.6401869, 53.4156349 ], [ -2.6403992, 53.4157065 ], [ -2.6403072, 53.4157946 ] ] ] ] } },
{ "type": "Feature", "properties": { "osm_timestamp": "2019\/08\/07 17:06:48", "addr:postcode": "DE13 8EH", "addr:street": "Lichfield Road", "amenity": "cafe", "brand": "Starbucks", "brand:wikidata": "Q37158", "cuisine": "coffee_shop", "name": "Starbucks" }, "geometry": { "type": "MultiPolygon", "coordinates": [ [ [ [ -1.7065276, 52.7585917 ], [ -1.7063801, 52.7587 ], [ -1.7065342, 52.7587769 ], [ -1.7066817, 52.7586686 ], [ -1.7065276, 52.7585917 ] ] ] ] } },
{ "type": "Feature", "properties": { "osm_timestamp": "2022\/02\/02 19:18:07", "addr:city": "Weston-Super-Mare", "addr:postcode": "BS23 3WL", "addr:street": "Winterstoke Road", "amenity": "cafe", "brand": "Tim Hortons", "brand:wikidata": "Q175106", "cuisine": "coffee_shop", "fhrs:id": "186291", "internet_access": "wlan", "internet_access:fee": "customers", "name": "Tim Hortons" }, "geometry": { "type": "MultiPolygon", "coordinates": [ [ [ [ -2.956382, 51.3396015 ], [ -2.9563772, 51.3395125 ], [ -2.956328, 51.3395135 ], [ -2.9563264, 51.3394828 ], [ -2.9562503, 51.3394844 ], [ -2.9562497, 51.3394738 ], [ -2.9561997, 51.3394749 ], [ -2.9562003, 51.3394847 ], [ -2.9560239, 51.3394884 ], [ -2.9559324, 51.3395518 ], [ -2.9559469, 51.33956 ], [ -2.95586, 51.3396202 ], [ -2.9559514, 51.3396717 ], [ -2.9560063, 51.3396336 ], [ -2.956081, 51.3396757 ], [ -2.9561819, 51.3396057 ], [ -2.956382, 51.3396015 ] ] ] ] } },
{ "type": "Feature", "properties": { "osm_timestamp": "2021\/06\/23 12:28:37", "amenity": "cafe", "brand": "Starbucks", "brand:wikidata": "Q37158", "cuisine": "coffee_shop", "name": "Starbucks" }, "geometry": { "type": "MultiPolygon", "coordinates": [ [ [ [ -1.7025661, 53.8024685 ], [ -1.7025058, 53.8023645 ], [ -1.7022536, 53.8024155 ], [ -1.7023139, 53.8025195 ], [ -1.7025661, 53.8024685 ] ] ] ] } },
{ "type": "Feature", "properties": { "osm_timestamp": "2019\/10\/21 04:01:46", "amenity": "cafe", "brand": "Starbucks", "brand:wikidata": "Q37158", "cuisine": "coffee_shop", "name": "Starbucks" }, "geometry": { "type": "MultiPolygon", "coordinates": [ [ [ [ -2.3436766, 53.4668381 ], [ -2.3436091, 53.4668914 ], [ -2.3434605, 53.4668247 ], [ -2.3434507, 53.4668324 ], [ -2.3434005, 53.4668099 ], [ -2.3434097, 53.4668027 ], [ -2.343358, 53.4667795 ], [ -2.34345, 53.4667068 ], [ -2.3435789, 53.4667647 ], [ -2.3436459, 53.4667948 ], [ -2.343622, 53.4668136 ], [ -2.3436766, 53.4668381 ] ] ] ] } },
{ "type": "Feature", "properties": { "osm_timestamp": "2021\/09\/17 22:05:38", "amenity": "cafe", "brand": "Starbucks", "brand:wikidata": "Q37158", "cuisine": "coffee_shop", "name": "Starbucks" }, "geometry": { "type": "MultiPolygon", "coordinates": [ [ [ [ 0.2498507, 51.8754355 ], [ 0.2498361, 51.8754363 ], [ 0.2498377, 51.8754473 ], [ 0.2498172, 51.8754484 ], [ 0.2498156, 51.875437 ], [ 0.2498054, 51.8754375 ], [ 0.2497979, 51.8753834 ], [ 0.2498134, 51.8753826 ], [ 0.2497941, 51.8752445 ], [ 0.2499447, 51.8752365 ], [ 0.2499565, 51.8753214 ], [ 0.2499784, 51.8753202 ], [ 0.2499969, 51.875452 ], [ 0.2499384, 51.8754551 ], [ 0.2498541, 51.8754596 ], [ 0.2498507, 51.8754355 ] ] ] ] } },
{ "type": "Feature", "properties": { "osm_timestamp": "2022\/04\/12 18:59:33", "amenity": "cafe", "brand": "Starbucks", "brand:wikidata": "Q37158", "cuisine": "coffee_shop", "name": "Starbucks" }, "geometry": { "type": "MultiPolygon", "coordinates": [ [ [ [ -2.7057561, 52.9670668 ], [ -2.7058698, 52.9672516 ], [ -2.7057292, 52.967283 ], [ -2.7056155, 52.9670981 ], [ -2.7057561, 52.9670668 ] ] ] ] } },
{ "type": "Feature", "properties": { "osm_timestamp": "2022\/07\/16 17:49:38", "addr:city": "Nottingham", "addr:place": "Castle Marina Retail Park", "addr:postcode": "NG7 1GX", "addr:street": "Castle Bridge Road", "amenity": "cafe", "brand": "Costa", "brand:wikidata": "Q608845", "cuisine": "coffee_shop", "fhrs:id": "217322", "name": "Costa", "outdoor_seating": "yes" }, "geometry": { "type": "MultiPolygon", "coordinates": [ [ [ [ -1.1598642, 52.9458242 ], [ -1.1597623, 52.9459662 ], [ -1.1599049, 52.9460033 ], [ -1.1600068, 52.9458614 ], [ -1.1598642, 52.9458242 ] ] ] ] } },
{ "type": "Feature", "properties": { "osm_timestamp": "2022\/06\/23 23:51:32", "addr:city": "Kirkcaldy", "addr:place": "Fife Central Retail Park", "addr:postcode": "KY2 6QL", "addr:street": "Chapel Park", "amenity": "cafe", "brand": "Starbucks", "brand:wikidata": "Q37158", "cuisine": "coffee_shop", "name": "Starbucks" }, "geometry": { "type": "MultiPolygon", "coordinates": [ [ [ [ -3.2007132, 56.1341736 ], [ -3.2006388, 56.1341772 ], [ -3.2003697, 56.1341901 ], [ -3.2003527, 56.1340806 ], [ -3.2003902, 56.1340788 ], [ -3.2003738, 56.1339728 ], [ -3.2006798, 56.1339581 ], [ -3.2007132, 56.1341736 ] ] ] ] } },
{ "type": "Feature", "properties": { "osm_timestamp": "2020\/12\/08 18:53:44", "amenity": "cafe", "brand": "Starbucks", "brand:wikidata": "Q37158", "cuisine": "coffee_shop", "name": "Starbucks", "operator": "Starbucks" }, "geometry": { "type": "MultiPolygon", "coordinates": [ [ [ [ -3.0293292, 52.8501967 ], [ -3.0290803, 52.8501731 ], [ -3.0290752, 52.8501925 ], [ -3.0289988, 52.8501852 ], [ -3.0290104, 52.8501406 ], [ -3.0289711, 52.8501368 ], [ -3.0289919, 52.8500587 ], [ -3.0292115, 52.8500795 ], [ -3.0292075, 52.8500946 ], [ -3.0293522, 52.8501084 ], [ -3.0293292, 52.8501967 ] ] ] ] } },
{ "type": "Feature", "properties": { "osm_timestamp": "2019\/10\/05 11:31:06", "addr:city": "Taunton", "addr:country": "GB", "addr:postcode": "TA1 2LR", "addr:street": "Hankridge Way", "amenity": "cafe", "brand": "Costa", "brand:wikidata": "Q608845", "cuisine": "coffee_shop", "fhrs:id": "622060", "internet_access": "yes", "internet_access:fee": "customers", "name": "Costa", "outdoor_seating": "yes" }, "geometry": { "type": "MultiPolygon", "coordinates": [ [ [ [ -3.0641687, 51.0202039 ], [ -3.0642039, 51.0201081 ], [ -3.0644443, 51.020143 ], [ -3.0644091, 51.0202388 ], [ -3.0641687, 51.0202039 ] ] ] ] } },
{ "type": "Feature", "properties": { "osm_timestamp": "2022\/09\/01 15:46:07", "addr:city": "Ipswich", "addr:postcode": "IP1 5QP", "addr:street": "Anglia Parkway South", "amenity": "cafe", "brand": "Tim Hortons", "brand:wikidata": "Q175106", "cuisine": "coffee_shop", "fhrs:id": "165872", "internet_access": "wlan", "name": "Tim Hortons", "outdoor_seating": "yes" }, "geometry": { "type": "MultiPolygon", "coordinates": [ [ [ [ 1.1169365, 52.0834508 ], [ 1.1167002, 52.083535 ], [ 1.1168417, 52.0836735 ], [ 1.1168831, 52.0836566 ], [ 1.116894, 52.0836705 ], [ 1.1169929, 52.0836363 ], [ 1.1169772, 52.0836231 ], [ 1.117068, 52.0835866 ], [ 1.1169365, 52.0834508 ] ] ] ] } },
{ "type": "Feature", "properties": { "osm_timestamp": "2021\/10\/18 08:50:28", "addr:city": "Solihull", "addr:postcode": "B90 3AQ", "addr:street": "Stratford Road", "amenity": "cafe", "brand": "Costa", "brand:wikidata": "Q608845", "cuisine": "coffee_shop", "fhrs:id": "523517", "name": "Costa" }, "geometry": { "type": "MultiPolygon", "coordinates": [ [ [ [ -1.8094579, 52.3918911 ], [ -1.8093873, 52.3920057 ], [ -1.8091413, 52.3919493 ], [ -1.8092119, 52.3918346 ], [ -1.8094579, 52.3918911 ] ] ] ] } },
{ "type": "Feature", "properties": { "osm_timestamp": "2020\/01\/09 22:13:55", "amenity": "cafe", "brand": "Starbucks", "brand:wikidata": "Q37158", "cuisine": "coffee_shop", "name": "Starbucks" }, "geometry": { "type": "MultiPolygon", "coordinates": [ [ [ [ -1.5582636, 51.4841728 ], [ -1.5582473, 51.4842505 ], [ -1.5578333, 51.4842167 ], [ -1.55786, 51.4840898 ], [ -1.5579717, 51.484099 ], [ -1.5579763, 51.4840773 ], [ -1.5580629, 51.4840844 ], [ -1.5580584, 51.4841061 ], [ -1.5581839, 51.4841163 ], [ -1.5581736, 51.4841655 ], [ -1.5582636, 51.4841728 ] ] ] ] } },
{ "type": "Feature", "properties": { "osm_timestamp": "2021\/01\/01 14:47:00", "amenity": "cafe", "brand": "Starbucks", "brand:wikidata": "Q37158", "cuisine": "coffee_shop", "name": "Starbucks", "outdoor_seating": "yes" }, "geometry": { "type": "MultiPolygon", "coordinates": [ [ [ [ -4.0288844, 55.7795701 ], [ -4.0291121, 55.7794674 ], [ -4.028914, 55.7793285 ], [ -4.0286863, 55.7794313 ], [ -4.0288844, 55.7795701 ] ] ] ] } },
{ "type": "Feature", "properties": { "osm_timestamp": "2021\/01\/27 08:38:51", "addr:city": "Newcastle-under-Lyme", "addr:country": "GB", "addr:postcode": "ST5 0AP", "addr:street": "Wolstanton Retail Park", "amenity": "cafe", "brand": "Starbucks", "brand:wikidata": "Q37158", "cuisine": "coffee_shop", "fhrs:id": "773123", "internet_access": "wlan", "name": "Starbucks" }, "geometry": { "type": "MultiPolygon", "coordinates": [ [ [ [ -2.2090767, 53.0303924 ], [ -2.2090588, 53.0303045 ], [ -2.2090796, 53.030303 ], [ -2.2090545, 53.0301794 ], [ -2.2089371, 53.0301881 ], [ -2.2089405, 53.0302047 ], [ -2.2088767, 53.0302094 ], [ -2.208886, 53.0302553 ], [ -2.2089072, 53.0302537 ], [ -2.2089375, 53.0304026 ], [ -2.2090767, 53.0303924 ] ] ] ] } },
{ "type": "Feature", "properties": { "osm_timestamp": "2022\/05\/21 10:35:37", "amenity": "cafe", "brand": "Costa", "brand:wikidata": "Q608845", "cuisine": "coffee_shop", "name": "Costa Drive Thru" }, "geometry": { "type": "MultiPolygon", "coordinates": [ [ [ [ -1.4092865, 53.4112019 ], [ -1.4092729, 53.4111935 ], [ -1.4091706, 53.4111351 ], [ -1.4091504, 53.4111241 ], [ -1.4090963, 53.4111582 ], [ -1.4090699, 53.411144 ], [ -1.4090254, 53.4111691 ], [ -1.4090517, 53.4111844 ], [ -1.4089495, 53.411247 ], [ -1.4090687, 53.4113211 ], [ -1.4092865, 53.4112019 ] ] ] ] } },
{ "type": "Feature", "properties": { "osm_timestamp": "2022\/02\/18 10:46:28", "addr:city": "Winchester", "addr:postcode": "SO23 9AS", "addr:street": "High Street", "amenity": "cafe", "brand": "Costa", "brand:wikidata": "Q608845", "cuisine": "coffee_shop", "fhrs:id": "1176635", "name": "Costa", "operator": "Costa" }, "geometry": { "type": "MultiPolygon", "coordinates": [ [ [ [ -1.3139678, 51.0624713 ], [ -1.3140744, 51.0624986 ], [ -1.3140039, 51.0626072 ], [ -1.3139548, 51.0625946 ], [ -1.3139362, 51.0626233 ], [ -1.3138787, 51.0626086 ], [ -1.3139678, 51.0624713 ] ] ] ] } },
{ "type": "Feature", "properties": { "osm_timestamp": "2019\/10\/20 01:27:00", "addr:city": "Gateshead", "addr:postcode": "NE11 9ZG", "addr:street": "Western Avenue", "amenity": "cafe", "brand": "Starbucks", "brand:wikidata": "Q37158", "cuisine": "coffee_shop", "fhrs:id": "429011", "internet_access": "wlan", "name": "Starbucks" }, "geometry": { "type": "MultiPolygon", "coordinates": [ [ [ [ -1.6735475, 54.9592563 ], [ -1.6738351, 54.9593018 ], [ -1.6738918, 54.9591835 ], [ -1.6736042, 54.959138 ], [ -1.6735475, 54.9592563 ] ] ] ] } },
{ "type": "Feature", "properties": { "osm_timestamp": "2021\/01\/25 21:13:17", "addr:place": "Markham Vale Services", "amenity": "cafe", "brand": "Starbucks", "brand:wikidata": "Q37158", "cuisine": "coffee_shop", "fhrs:id": "693309", "name": "Starbucks" }, "geometry": { "type": "MultiPolygon", "coordinates": [ [ [ [ -1.3341725, 53.243503 ], [ -1.3341168, 53.2435086 ], [ -1.3341216, 53.2435257 ], [ -1.3339965, 53.2435384 ], [ -1.3339579, 53.2434017 ], [ -1.3340092, 53.2433965 ], [ -1.3339951, 53.2433467 ], [ -1.334108, 53.2433353 ], [ -1.3341416, 53.243454 ], [ -1.3341758, 53.2434505 ], [ -1.3341827, 53.2434752 ], [ -1.3341652, 53.243477 ], [ -1.3341725, 53.243503 ] ] ] ] } },
{ "type": "Feature", "properties": { "osm_timestamp": "2022\/02\/26 20:36:32", "addr:city": "Washington", "addr:postcode": "NE38 7RW", "addr:street": "The Galleries Retail Park", "amenity": "cafe", "brand": "Tim Hortons", "brand:wikidata": "Q175106", "cuisine": "coffee_shop", "internet_access": "wlan", "name": "Tim Hortons" }, "geometry": { "type": "MultiPolygon", "coordinates": [ [ [ [ -1.5299772, 54.9016678 ], [ -1.5303071, 54.9016139 ], [ -1.5302213, 54.9014164 ], [ -1.5298753, 54.9014673 ], [ -1.5299772, 54.9016678 ] ] ] ] } },
{ "type": "Feature", "properties": { "osm_timestamp": "2021\/06\/19 18:14:29", "addr:city": "Consett", "addr:place": "Puddlers Corner", "addr:postcode": "DH8 5XP", "addr:street": "Genesis Way", "amenity": "cafe", "brand": "Starbucks", "brand:wikidata": "Q37158", "cuisine": "coffee_shop", "fhrs:id": "848759", "name": "Starbucks" }, "geometry": { "type": "MultiPolygon", "coordinates": [ [ [ [ -1.8394301, 54.8482727 ], [ -1.8395354, 54.8483585 ], [ -1.8398447, 54.8482327 ], [ -1.8397394, 54.8481469 ], [ -1.8394301, 54.8482727 ] ] ] ] } },
{ "type": "Feature", "properties": { "osm_timestamp": "2020\/12\/19 18:15:20", "addr:city": "Peterlee", "addr:place": "North West Industrial Estate", "addr:postcode": "SR8 2RH", "addr:street": "Cook Way", "amenity": "cafe", "cuisine": "coffee_shop", "name": "Siesta Coffee" }, "geometry": { "type": "MultiPolygon", "coordinates": [ [ [ [ -1.3686892, 54.7624907 ], [ -1.3686918, 54.7624493 ], [ -1.3686716, 54.7624489 ], [ -1.3686807, 54.7623447 ], [ -1.3684922, 54.7623379 ], [ -1.368487, 54.7624015 ], [ -1.3684401, 54.7624004 ], [ -1.3684361, 54.7624504 ], [ -1.3684583, 54.7624512 ], [ -1.3684564, 54.7624869 ], [ -1.3686892, 54.7624907 ] ] ] ] } },
{ "type": "Feature", "properties": { "osm_timestamp": "2022\/02\/20 17:22:47", "addr:city": "Cheltenham", "addr:postcode": "GL51 9FJ", "amenity": "cafe", "brand": "Starbucks", "brand:wikidata": "Q37158", "cuisine": "coffee_shop", "name": "Starbucks", "outdoor_seating": "yes" }, "geometry": { "type": "MultiPolygon", "coordinates": [ [ [ [ -2.1021715, 51.9160422 ], [ -2.1020743, 51.9160022 ], [ -2.102276, 51.9158172 ], [ -2.1023051, 51.9158291 ], [ -2.1023733, 51.9158572 ], [ -2.1021715, 51.9160422 ] ] ] ] } },
{ "type": "Feature", "properties": { "osm_timestamp": "2019\/05\/21 20:13:06", "amenity": "cafe", "brand": "Costa", "brand:wikidata": "Q608845", "cuisine": "coffee_shop", "name": "Costa" }, "geometry": { "type": "MultiPolygon", "coordinates": [ [ [ [ -2.5722831, 51.5263072 ], [ -2.5721081, 51.5262941 ], [ -2.5720753, 51.5264642 ], [ -2.5721049, 51.5264664 ], [ -2.5720991, 51.5264964 ], [ -2.572192, 51.5265034 ], [ -2.572194, 51.5264928 ], [ -2.5722466, 51.5264967 ], [ -2.5722831, 51.5263072 ] ] ] ] } },
{ "type": "Feature", "properties": { "osm_timestamp": "2022\/08\/10 12:42:42", "addr:postcode": "BL9 0JL", "addr:street": "St Johns Square", "amenity": "cafe", "brand": "Costa", "brand:wikidata": "Q608845", "cuisine": "coffee_shop", "fhrs:id": "87935", "internet_access": "wlan", "internet_access:fee": "no", "name": "Costa", "outdoor_seating": "no" }, "geometry": { "type": "MultiPolygon", "coordinates": [ [ [ [ -2.2909615, 53.5952008 ], [ -2.2907179, 53.5953062 ], [ -2.2905974, 53.5952107 ], [ -2.2907574, 53.5951404 ], [ -2.290786, 53.5951638 ], [ -2.2908734, 53.5951266 ], [ -2.2909615, 53.5952008 ] ] ] ] } },
{ "type": "Feature", "properties": { "osm_timestamp": "2021\/06\/27 18:48:16", "addr:city": "South Shields", "addr:postcode": "NE34 9QE", "addr:street": "Newcastle Road", "amenity": "cafe", "brand": "Starbucks", "brand:wikidata": "Q37158", "cuisine": "coffee_shop", "fhrs:id": "855749", "name": "Starbucks" }, "geometry": { "type": "MultiPolygon", "coordinates": [ [ [ [ -1.4511338, 54.9757016 ], [ -1.4512586, 54.975743 ], [ -1.4514144, 54.9755885 ], [ -1.4513124, 54.9755546 ], [ -1.4513074, 54.9755597 ], [ -1.4512587, 54.9755435 ], [ -1.4511997, 54.975602 ], [ -1.4512255, 54.9756106 ], [ -1.4511338, 54.9757016 ] ] ] ] } },
{ "type": "Feature", "properties": { "osm_timestamp": "2022\/06\/11 10:06:12", "addr:city": "Exeter", "addr:postcode": "EX2 8AA", "addr:street": "Ashton Road", "amenity": "cafe", "brand": "Starbucks", "brand:wikidata": "Q37158", "cuisine": "coffee_shop", "fhrs:id": "1410710", "internet_access": "wlan", "name": "Starbucks" }, "geometry": { "type": "MultiPolygon", "coordinates": [ [ [ [ -3.5371891, 50.7078916 ], [ -3.5369846, 50.7079015 ], [ -3.5369888, 50.7079361 ], [ -3.5369237, 50.7079393 ], [ -3.5369301, 50.7079921 ], [ -3.5371997, 50.7079791 ], [ -3.5371891, 50.7078916 ] ] ] ] } },
{ "type": "Feature", "properties": { "osm_timestamp": "2021\/01\/07 10:39:55", "addr:city": "Burton-on-Trent", "addr:postcode": "DE13 0BB", "addr:street": "Eastern Avenue", "amenity": "cafe", "brand": "Costa", "brand:wikidata": "Q608845", "cuisine": "coffee_shop", "fhrs:id": "1247601", "name": "Costa" }, "geometry": { "type": "MultiPolygon", "coordinates": [ [ [ [ -1.6189172, 52.8271663 ], [ -1.6190967, 52.8270478 ], [ -1.618961, 52.8269729 ], [ -1.6187816, 52.8270914 ], [ -1.6189172, 52.8271663 ] ] ] ] } },
{ "type": "Feature", "properties": { "osm_timestamp": "2020\/05\/11 17:07:50", "amenity": "cafe", "brand": "Costa", "brand:wikidata": "Q608845", "cuisine": "coffee_shop", "internet_access": "wlan", "internet_access:fee": "customers", "name": "Costa", "outdoor_seating": "yes" }, "geometry": { "type": "MultiPolygon", "coordinates": [ [ [ [ -3.1614389, 55.9278963 ], [ -3.1617135, 55.9277219 ], [ -3.1618362, 55.9277826 ], [ -3.1616694, 55.9278885 ], [ -3.161657, 55.9278824 ], [ -3.1615492, 55.9279508 ], [ -3.1614389, 55.9278963 ] ] ] ] } },
{ "type": "Feature", "properties": { "osm_timestamp": "2022\/02\/06 23:27:37", "amenity": "cafe", "brand": "Starbucks", "brand:wikidata": "Q37158", "cuisine": "coffee_shop", "name": "Starbucks", "operator": "Starbucks" }, "geometry": { "type": "MultiPolygon", "coordinates": [ [ [ [ -3.5251178, 55.8801326 ], [ -3.524891, 55.8802125 ], [ -3.5248991, 55.8802198 ], [ -3.5248168, 55.8802488 ], [ -3.5247857, 55.8802211 ], [ -3.524759, 55.8802305 ], [ -3.5246883, 55.8801673 ], [ -3.524894, 55.8800948 ], [ -3.5249048, 55.8801045 ], [ -3.525035, 55.8800586 ], [ -3.5251178, 55.8801326 ] ] ] ] } },
{ "type": "Feature", "properties": { "osm_timestamp": "2021\/05\/22 17:05:15", "addr:city": "Ferryhill", "addr:postcode": "DL17 8RU", "addr:street": "A167", "amenity": "cafe", "brand": "Starbucks", "brand:wikidata": "Q37158", "cuisine": "coffee_shop", "fhrs:id": "642333", "internet_access": "yes", "internet_access:fee": "no", "name": "Starbucks", "outdoor_seating": "yes" }, "geometry": { "type": "MultiPolygon", "coordinates": [ [ [ [ -1.5665783, 54.7044054 ], [ -1.5664794, 54.7041947 ], [ -1.5662974, 54.7042232 ], [ -1.5663963, 54.7044339 ], [ -1.5665783, 54.7044054 ] ] ] ] } },
{ "type": "Feature", "properties": { "osm_timestamp": "2020\/12\/28 18:31:54", "addr:postcode": "WS10 9QY", "addr:street": "Axletree Way", "amenity": "cafe", "brand": "Costa", "brand:wikidata": "Q608845", "cuisine": "coffee_shop", "fhrs:id": "845985", "name": "Costa" }, "geometry": { "type": "MultiPolygon", "coordinates": [ [ [ [ -2.0108558, 52.5675699 ], [ -2.0109746, 52.5676302 ], [ -2.0111423, 52.5675081 ], [ -2.0110619, 52.5674673 ], [ -2.0110242, 52.5674481 ], [ -2.010995, 52.5674693 ], [ -2.0109708, 52.5674571 ], [ -2.0109642, 52.5674619 ], [ -2.0109387, 52.5674803 ], [ -2.0109621, 52.5674923 ], [ -2.0109486, 52.567502 ], [ -2.0108558, 52.5675699 ] ] ] ] } },
{ "type": "Feature", "properties": { "osm_timestamp": "2022\/05\/25 07:17:56", "addr:city": "Aberdeen", "addr:postcode": "AB12 3QW", "addr:street": "Wellington Circle", "amenity": "cafe", "brand": "Starbucks", "brand:wikidata": "Q37158", "cuisine": "coffee_shop", "fhrs:id": "982840", "name": "Starbucks" }, "geometry": { "type": "MultiPolygon", "coordinates": [ [ [ [ -2.0947174, 57.1091905 ], [ -2.0943398, 57.1091142 ], [ -2.0943917, 57.1090385 ], [ -2.094633, 57.1090873 ], [ -2.0946421, 57.1090741 ], [ -2.0947327, 57.1090924 ], [ -2.0947249, 57.1091037 ], [ -2.0947706, 57.1091129 ], [ -2.0947174, 57.1091905 ] ] ] ] } },
{ "type": "Feature", "properties": { "osm_timestamp": "2022\/03\/16 00:42:56", "addr:city": "Chelmsford", "addr:postcode": "CM3 3PT", "addr:street": "Eagle Way", "amenity": "cafe", "brand": "Costa", "brand:wikidata": "Q608845", "cuisine": "coffee_shop", "internet_access": "wlan", "internet_access:fee": "no", "name": "Costa", "outdoor_seating": "yes" }, "geometry": { "type": "MultiPolygon", "coordinates": [ [ [ [ 0.4867014, 51.7707203 ], [ 0.4868805, 51.7707049 ], [ 0.4868776, 51.7706889 ], [ 0.4868908, 51.7706879 ], [ 0.4868703, 51.7705928 ], [ 0.4868554, 51.770594 ], [ 0.4868447, 51.7705442 ], [ 0.4866663, 51.7705589 ], [ 0.4867014, 51.7707203 ] ] ] ] } },
{ "type": "Feature", "properties": { "osm_timestamp": "2022\/03\/12 13:17:37", "addr:city": "Newcastle Upon Tyne", "addr:postcode": "NE5 2SF", "addr:street": "Stamfordham Road", "amenity": "cafe", "brand": "Costa", "brand:wikidata": "Q608845", "cuisine": "coffee_shop", "fhrs:id": "715079", "name": "Costa" }, "geometry": { "type": "MultiPolygon", "coordinates": [ [ [ [ -1.6749612, 54.9905762 ], [ -1.6747714, 54.9904702 ], [ -1.6746614, 54.9905351 ], [ -1.6748512, 54.990641 ], [ -1.6749612, 54.9905762 ] ] ] ] } },
{ "type": "Feature", "properties": { "osm_timestamp": "2022\/07\/22 14:11:49", "amenity": "cafe", "brand": "Costa", "brand:wikidata": "Q608845", "cuisine": "coffee_shop", "name": "Costa Drive Thru", "operator": "Costa Coffee" }, "geometry": { "type": "MultiPolygon", "coordinates": [ [ [ [ -1.29673, 51.0697697 ], [ -1.2967981, 51.0698299 ], [ -1.2972028, 51.069649 ], [ -1.2971347, 51.0695889 ], [ -1.29673, 51.0697697 ] ] ] ] } },
{ "type": "Feature", "properties": { "osm_timestamp": "2022\/07\/27 10:58:23", "amenity": "cafe", "brand": "Costa", "brand:wikidata": "Q608845", "cuisine": "coffee_shop", "name": "Costa Drive Thru" }, "geometry": { "type": "MultiPolygon", "coordinates": [ [ [ [ -0.3412946, 53.7679078 ], [ -0.3410121, 53.7680174 ], [ -0.3411259, 53.7681138 ], [ -0.3414125, 53.7680048 ], [ -0.3412946, 53.7679078 ] ] ] ] } },
{ "type": "Feature", "properties": { "osm_timestamp": "2021\/05\/31 12:31:27", "addr:city": "Reading", "addr:postcode": "RG6 1AZ", "addr:street": "Suttons Park Avenue", "amenity": "cafe", "brand": "Costa", "brand:wikidata": "Q608845", "cuisine": "coffee_shop", "name": "Costa" }, "geometry": { "type": "MultiPolygon", "coordinates": [ [ [ [ -0.9340439, 51.4577714 ], [ -0.9340917, 51.4577709 ], [ -0.9341793, 51.4576695 ], [ -0.9340422, 51.4576188 ], [ -0.9340575, 51.4576039 ], [ -0.9339986, 51.4575822 ], [ -0.9339767, 51.4576105 ], [ -0.9339203, 51.4575957 ], [ -0.9338306, 51.4577005 ], [ -0.9340439, 51.4577714 ] ] ] ] } },
{ "type": "Feature", "properties": { "osm_timestamp": "2019\/03\/11 14:56:25", "amenity": "cafe", "brand": "Starbucks", "brand:wikidata": "Q37158", "cuisine": "coffee_shop", "name": "Starbucks", "outdoor_seating": "yes" }, "geometry": { "type": "MultiPolygon", "coordinates": [ [ [ [ -0.3357659, 53.7677398 ], [ -0.3354784, 53.7677245 ], [ -0.3354931, 53.7676169 ], [ -0.3357767, 53.7676315 ], [ -0.3357659, 53.7677398 ] ] ] ] } },
{ "type": "Feature", "properties": { "osm_timestamp": "2020\/11\/23 11:22:57", "addr:city": "Peterborough", "addr:postcode": "PE2 5YA", "addr:street": "Ortongate Retail Park", "amenity": "cafe", "brand": "Starbucks", "brand:wikidata": "Q37158", "cuisine": "coffee_shop", "fhrs:id": "1253471", "internet_access": "wlan", "internet_access:fee": "no", "name": "Starbucks", "outdoor_seating": "yes", "ref": "1016432" }, "geometry": { "type": "MultiPolygon", "coordinates": [ [ [ [ -0.3049929, 52.5450866 ], [ -0.3049644, 52.5450776 ], [ -0.3049178, 52.5450631 ], [ -0.3048985, 52.5450572 ], [ -0.3047412, 52.5450056 ], [ -0.3047293, 52.5450192 ], [ -0.3047136, 52.5450141 ], [ -0.3046641, 52.5450703 ], [ -0.3046414, 52.5450996 ], [ -0.3046805, 52.5451122 ], [ -0.3046711, 52.545123 ], [ -0.3047383, 52.5451447 ], [ -0.3047526, 52.5451282 ], [ -0.3049606, 52.5451951 ], [ -0.3050054, 52.5451436 ], [ -0.3049572, 52.5451281 ], [ -0.3049739, 52.5451089 ], [ -0.3049929, 52.5450866 ] ] ] ] } },
{ "type": "Feature", "properties": { "osm_timestamp": "2019\/12\/28 14:59:17", "addr:city": "Weston-Super-Mare", "addr:country": "GB", "addr:postcode": "BS23 3YY", "addr:street": "Gallegher Retail Park", "amenity": "cafe", "brand": "Costa", "brand:wikidata": "Q608845", "cuisine": "coffee_shop", "fhrs:id": "1126326", "internet_access": "wlan", "internet_access:fee": "no", "name": "Costa", "outdoor_seating": "yes" }, "geometry": { "type": "MultiPolygon", "coordinates": [ [ [ [ -2.9634773, 51.3390056 ], [ -2.963572, 51.338932 ], [ -2.9634355, 51.3388634 ], [ -2.9634974, 51.3388152 ], [ -2.9632758, 51.338704 ], [ -2.9631193, 51.3388258 ], [ -2.9634773, 51.3390056 ] ] ] ] } },
{ "type": "Feature", "properties": { "osm_timestamp": "2019\/12\/18 22:14:00", "amenity": "cafe", "brand": "Costa", "brand:wikidata": "Q608845", "cuisine": "coffee_shop", "name": "Costa" }, "geometry": { "type": "MultiPolygon", "coordinates": [ [ [ [ -2.0710686, 52.5137638 ], [ -2.0711051, 52.5136054 ], [ -2.0708947, 52.5135874 ], [ -2.0708813, 52.5136455 ], [ -2.0709115, 52.5136481 ], [ -2.0708884, 52.5137484 ], [ -2.0710686, 52.5137638 ] ] ] ] } },
{ "type": "Feature", "properties": { "osm_timestamp": "2019\/06\/05 20:05:44", "amenity": "cafe", "cuisine": "coffee_shop", "fhrs:id": "1045956", "name": "Costa Drive Thru" }, "geometry": { "type": "MultiPolygon", "coordinates": [ [ [ [ -2.1426968, 52.0581487 ], [ -2.1427552, 52.0581033 ], [ -2.1426949, 52.0580739 ], [ -2.1426364, 52.0581194 ], [ -2.1426968, 52.0581487 ] ] ] ] } },
{ "type": "Feature", "properties": { "osm_timestamp": "2022\/04\/24 14:35:27", "addr:city": "Derby", "addr:postcode": "DE21 6NZ", "addr:street": "Wyvern Way", "amenity": "cafe", "brand": "Costa", "brand:wikidata": "Q608845", "cuisine": "coffee_shop", "fhrs:id": "628539", "name": "Costa Drive Thru" }, "geometry": { "type": "MultiPolygon", "coordinates": [ [ [ [ -1.4346142, 52.9175194 ], [ -1.4347132, 52.917376 ], [ -1.4345742, 52.9173411 ], [ -1.4344752, 52.9174845 ], [ -1.4346142, 52.9175194 ] ] ] ] } },
{ "type": "Feature", "properties": { "osm_timestamp": "2020\/12\/11 10:56:25", "addr:city": "Camborne", "addr:country": "GB", "addr:place": "Trevenson Gateway", "addr:postcode": "TR14 0BJ", "addr:street": "Gas Lane", "amenity": "cafe", "brand": "Costa", "brand:wikidata": "Q608845", "cuisine": "coffee_shop", "fhrs:id": "1094871", "internet_access": "yes", "internet_access:fee": "no", "name": "Costa", "operator": "Costa", "outdoor_seating": "yes" }, "geometry": { "type": "MultiPolygon", "coordinates": [ [ [ [ -5.2782735, 50.225119 ], [ -5.2783714, 50.2252048 ], [ -5.2781712, 50.2252983 ], [ -5.2780733, 50.2252125 ], [ -5.2782735, 50.225119 ] ] ] ] } },
{ "type": "Feature", "properties": { "osm_timestamp": "2020\/01\/24 16:26:39", "addr:city": "Backworth", "addr:postcode": "NE27 0FG", "addr:street": "Northumberland Park Way", "amenity": "cafe", "brand": "Costa", "brand:wikidata": "Q608845", "cuisine": "coffee_shop", "fhrs:id": "1084510", "name": "Costa" }, "geometry": { "type": "MultiPolygon", "coordinates": [ [ [ [ -1.5219312, 55.031892 ], [ -1.5216643, 55.031971 ], [ -1.5215726, 55.0318694 ], [ -1.5218395, 55.0317903 ], [ -1.5219312, 55.031892 ] ] ] ] } },
{ "type": "Feature", "properties": { "osm_timestamp": "2022\/07\/03 06:35:41", "addr:city": "Portsmouth", "addr:country": "GB", "addr:postcode": "PO6 4FG", "addr:street": "Binnacle Way", "amenity": "cafe", "brand": "Costa", "brand:wikidata": "Q608845", "cuisine": "coffee_shop", "fhrs:id": "1040508", "name": "Costa" }, "geometry": { "type": "MultiPolygon", "coordinates": [ [ [ [ -1.0958697, 50.8462026 ], [ -1.0958742, 50.8461779 ], [ -1.0959069, 50.8461803 ], [ -1.0959024, 50.8462049 ], [ -1.0959211, 50.8462063 ], [ -1.0959087, 50.8462751 ], [ -1.0957802, 50.8462658 ], [ -1.0957065, 50.8462605 ], [ -1.095719, 50.8461917 ], [ -1.0958697, 50.8462026 ] ] ] ] } },
{ "type": "Feature", "properties": { "osm_timestamp": "2021\/03\/12 11:12:50", "addr:city": "Milton Keynes", "addr:country": "GB", "addr:postcode": "MK9 1EN", "addr:street": "The Place Retail Park", "amenity": "cafe", "brand": "Starbucks", "brand:wikidata": "Q37158", "cuisine": "coffee_shop", "fhrs:id": "629919", "name": "Starbucks", "outdoor_seating": "yes" }, "geometry": { "type": "MultiPolygon", "coordinates": [ [ [ [ -0.7774514, 52.0381551 ], [ -0.7773179, 52.0382106 ], [ -0.7774629, 52.0383425 ], [ -0.7775963, 52.038287 ], [ -0.7774514, 52.0381551 ] ] ] ] } },
{ "type": "Feature", "properties": { "osm_timestamp": "2020\/09\/29 21:28:11", "amenity": "cafe", "brand": "Starbucks", "brand:wikidata": "Q37158", "cuisine": "coffee_shop", "name": "Starbucks" }, "geometry": { "type": "MultiPolygon", "coordinates": [ [ [ [ 0.1545376, 51.4972297 ], [ 0.154708, 51.4972071 ], [ 0.1547207, 51.4972441 ], [ 0.1547263, 51.4972607 ], [ 0.1548142, 51.497249 ], [ 0.1548089, 51.4972335 ], [ 0.1547961, 51.4971961 ], [ 0.1549351, 51.4971777 ], [ 0.1549017, 51.4970801 ], [ 0.1547175, 51.4971046 ], [ 0.1547086, 51.4970786 ], [ 0.1547041, 51.4970653 ], [ 0.1545648, 51.4970838 ], [ 0.154491, 51.4970936 ], [ 0.1545376, 51.4972297 ] ] ] ] } },
{ "type": "Feature", "properties": { "osm_timestamp": "2020\/05\/18 11:08:11", "addr:city": "Blackburn", "addr:country": "GB", "addr:postcode": "BB2 3DY", "addr:street": "Lower Audley Street", "amenity": "cafe", "brand": "Costa", "brand:wikidata": "Q608845", "cuisine": "coffee_shop", "fhrs:id": "1132644", "name": "Costa" }, "geometry": { "type": "MultiPolygon", "coordinates": [ [ [ [ -2.4794026, 53.7420363 ], [ -2.4795797, 53.7419927 ], [ -2.4794409, 53.7417954 ], [ -2.4792637, 53.741839 ], [ -2.4794026, 53.7420363 ] ] ] ] } },
{ "type": "Feature", "properties": { "osm_timestamp": "2019\/09\/21 08:09:23", "addr:city": "Ashby-de-la-Zouch", "addr:postcode": "LE65 1JP", "addr:street": "Lountside", "amenity": "cafe", "brand": "Starbucks", "brand:wikidata": "Q37158", "cuisine": "coffee_shop", "fhrs:id": "1063900", "name": "Starbucks" }, "geometry": { "type": "MultiPolygon", "coordinates": [ [ [ [ -1.4488046, 52.7511507 ], [ -1.4484774, 52.751257 ], [ -1.4484042, 52.7511746 ], [ -1.4487315, 52.7510682 ], [ -1.4488046, 52.7511507 ] ] ] ] } },
{ "type": "Feature", "properties": { "osm_timestamp": "2019\/07\/19 18:45:18", "amenity": "cafe", "brand": "Costa", "brand:wikidata": "Q608845", "cuisine": "coffee_shop", "name": "Costa", "outdoor_seating": "yes" }, "geometry": { "type": "MultiPolygon", "coordinates": [ [ [ [ -2.0977721, 51.913245 ], [ -2.0978782, 51.9131978 ], [ -2.0976804, 51.9130285 ], [ -2.0975742, 51.9130757 ], [ -2.0976436, 51.9131351 ], [ -2.0977721, 51.913245 ] ] ] ] } },
{ "type": "Feature", "properties": { "osm_timestamp": "2022\/01\/04 14:24:33", "amenity": "cafe", "brand": "Costa", "brand:wikidata": "Q608845", "cuisine": "coffee_shop", "name": "Costa Drive Thru" }, "geometry": { "type": "MultiPolygon", "coordinates": [ [ [ [ -2.9518882, 53.4796844 ], [ -2.9517824, 53.4797715 ], [ -2.9515672, 53.479679 ], [ -2.951673, 53.4795919 ], [ -2.9518882, 53.4796844 ] ] ] ] } },
{ "type": "Feature", "properties": { "osm_timestamp": "2021\/03\/20 19:39:05", "amenity": "cafe", "brand": "Starbucks", "brand:wikidata": "Q37158", "cuisine": "coffee_shop", "name": "Starbucks" }, "geometry": { "type": "MultiPolygon", "coordinates": [ [ [ [ 0.1963446, 51.8713357 ], [ 0.1963592, 51.8712058 ], [ 0.1962108, 51.8711995 ], [ 0.1961962, 51.8713294 ], [ 0.1963446, 51.8713357 ] ] ] ] } },
{ "type": "Feature", "properties": { "osm_timestamp": "2022\/03\/18 18:12:54", "amenity": "cafe", "brand": "Costa", "brand:wikidata": "Q608845", "cuisine": "coffee_shop", "name": "Costa Drive Thru" }, "geometry": { "type": "MultiPolygon", "coordinates": [ [ [ [ -1.3543137, 53.3456465 ], [ -1.354146, 53.3455916 ], [ -1.3543066, 53.3454169 ], [ -1.3544742, 53.3454717 ], [ -1.3543137, 53.3456465 ] ] ] ] } },
{ "type": "Feature", "properties": { "osm_timestamp": "2021\/06\/20 17:07:28", "addr:city": "Bradford", "addr:place": "Gallagher Leisure Park", "addr:postcode": "BD3 7AY", "addr:street": "Mid Point", "amenity": "cafe", "brand": "Costa", "brand:wikidata": "Q608845", "cuisine": "coffee_shop", "fhrs:id": "1069779", "name": "Costa" }, "geometry": { "type": "MultiPolygon", "coordinates": [ [ [ [ -1.7038723, 53.8002564 ], [ -1.7039309, 53.8001575 ], [ -1.7041876, 53.8002107 ], [ -1.704129, 53.8003095 ], [ -1.7038723, 53.8002564 ] ] ] ] } },
{ "type": "Feature", "properties": { "osm_timestamp": "2022\/05\/28 21:18:50", "amenity": "cafe", "brand": "Costa", "brand:wikidata": "Q608845", "cuisine": "coffee_shop", "name": "Costa" }, "geometry": { "type": "MultiPolygon", "coordinates": [ [ [ [ -3.1015687, 55.9407113 ], [ -3.1015318, 55.9406109 ], [ -3.1012552, 55.9406428 ], [ -3.1012921, 55.9407432 ], [ -3.1015687, 55.9407113 ] ] ] ] } },
{ "type": "Feature", "properties": { "osm_timestamp": "2021\/03\/19 22:20:07", "addr:city": "Letchworth Garden City", "addr:postcode": "SG6 2HB", "addr:street": "Avenue One", "amenity": "cafe", "brand": "Costa", "brand:wikidata": "Q608845", "cuisine": "coffee_shop", "name": "Costa", "outdoor_seating": "yes" }, "geometry": { "type": "MultiPolygon", "coordinates": [ [ [ [ -0.2086501, 51.9790551 ], [ -0.2083978, 51.9790887 ], [ -0.2083593, 51.9789791 ], [ -0.2086116, 51.9789457 ], [ -0.2086501, 51.9790551 ] ] ] ] } },
{ "type": "Feature", "properties": { "osm_timestamp": "2019\/09\/30 13:44:18", "amenity": "cafe", "brand": "Costa", "brand:wikidata": "Q608845", "cuisine": "coffee_shop", "name": "Costa" }, "geometry": { "type": "MultiPolygon", "coordinates": [ [ [ [ -4.085767, 50.3925597 ], [ -4.0860304, 50.392562 ], [ -4.0860327, 50.3924556 ], [ -4.0857693, 50.3924533 ], [ -4.085767, 50.3925597 ] ] ] ] } },
{ "type": "Feature", "properties": { "osm_timestamp": "2020\/11\/15 13:39:44", "addr:city": "Wellington", "addr:country": "GB", "addr:postcode": "TA21 9AD", "addr:street": "Westpark", "amenity": "cafe", "brand": "Costa", "brand:wikidata": "Q608845", "cuisine": "coffee_shop", "fhrs:id": "1250513", "internet_access": "wlan", "internet_access:fee": "customers", "name": "Costa", "outdoor_seating": "yes" }, "geometry": { "type": "MultiPolygon", "coordinates": [ [ [ [ -3.2048063, 50.980875 ], [ -3.2048775, 50.980671 ], [ -3.2046882, 50.9806448 ], [ -3.2046171, 50.9808488 ], [ -3.2048063, 50.980875 ] ] ] ] } },
{ "type": "Feature", "properties": { "osm_timestamp": "2020\/02\/04 06:01:44", "amenity": "cafe", "brand": "Costa", "brand:wikidata": "Q608845", "cuisine": "coffee_shop", "name": "Costa" }, "geometry": { "type": "MultiPolygon", "coordinates": [ [ [ [ -1.2945265, 51.7554204 ], [ -1.294695, 51.7553863 ], [ -1.29464, 51.7553124 ], [ -1.2943709, 51.7551995 ], [ -1.2942436, 51.7552826 ], [ -1.2945265, 51.7554204 ] ] ] ] } },
{ "type": "Feature", "properties": { "osm_timestamp": "2020\/10\/14 16:36:55", "addr:city": "Wakefield", "addr:postcode": "WF1 2GS", "addr:street": "Snowfield Avenue", "amenity": "cafe", "brand": "Starbucks", "brand:wikidata": "Q37158", "cuisine": "coffee_shop", "fhrs:id": "1211469", "name": "Starbucks" }, "geometry": { "type": "MultiPolygon", "coordinates": [ [ [ [ -1.5043662, 53.6960796 ], [ -1.5046663, 53.6960524 ], [ -1.5046955, 53.6961654 ], [ -1.5043954, 53.6961925 ], [ -1.5043662, 53.6960796 ] ] ] ] } },
{ "type": "Feature", "properties": { "osm_timestamp": "2020\/05\/22 15:51:16", "addr:postcode": "IV30 6LS", "addr:street": "Riverside Road", "amenity": "cafe", "brand": "Costa", "brand:wikidata": "Q608845", "cuisine": "coffee_shop", "fhrs:id": "1131744", "name": "Costa" }, "geometry": { "type": "MultiPolygon", "coordinates": [ [ [ [ -3.2803903, 57.6454271 ], [ -3.2801517, 57.6453613 ], [ -3.2800657, 57.6454508 ], [ -3.2803043, 57.6455165 ], [ -3.2803903, 57.6454271 ] ] ] ] } },
{ "type": "Feature", "properties": { "osm_timestamp": "2020\/03\/22 21:31:35", "addr:city": "Penzance", "addr:country": "GB", "addr:place": "St Michaels Retail Park", "addr:postcode": "TR18 3FH", "addr:street": "Eastern Green", "amenity": "cafe", "brand": "Costa", "brand:wikidata": "Q608845", "cuisine": "coffee_shop", "name": "Costa" }, "geometry": { "type": "MultiPolygon", "coordinates": [ [ [ [ -5.5164573, 50.1283511 ], [ -5.5162696, 50.1283807 ], [ -5.5162057, 50.1282138 ], [ -5.5163934, 50.1281843 ], [ -5.5164573, 50.1283511 ] ] ] ] } },
{ "type": "Feature", "properties": { "osm_timestamp": "2022\/09\/04 18:11:02", "addr:city": "Aberdeen", "addr:postcode": "AB23 8JW", "addr:street": "Denmore Road", "amenity": "cafe", "brand": "Costa", "brand:wikidata": "Q608845", "cuisine": "coffee_shop", "fhrs:id": "1060717", "name": "Costa Drive Thru", "outdoor_seating": "yes" }, "geometry": { "type": "MultiPolygon", "coordinates": [ [ [ [ -2.0906995, 57.2012772 ], [ -2.0905104, 57.2012765 ], [ -2.0905125, 57.201109 ], [ -2.0907016, 57.2011097 ], [ -2.0906995, 57.2012772 ] ] ] ] } },
{ "type": "Feature", "properties": { "osm_timestamp": "2021\/01\/03 16:35:23", "amenity": "cafe", "brand": "Starbucks", "brand:wikidata": "Q37158", "cuisine": "coffee_shop", "name": "Starbucks" }, "geometry": { "type": "MultiPolygon", "coordinates": [ [ [ [ -1.0636576, 53.3897171 ], [ -1.0634666, 53.3897521 ], [ -1.0633841, 53.3895923 ], [ -1.0635736, 53.3895569 ], [ -1.0636576, 53.3897171 ] ] ] ] } },
{ "type": "Feature", "properties": { "osm_timestamp": "2020\/06\/10 19:59:18", "addr:city": "Newcastle upon Tyne", "addr:country": "GB", "addr:postcode": "NE3 5EH", "addr:street": "Rotary Way", "amenity": "cafe", "brand": "Costa", "brand:wikidata": "Q608845", "cuisine": "coffee_shop", "fhrs:id": "1062033", "name": "Costa" }, "geometry": { "type": "MultiPolygon", "coordinates": [ [ [ [ -1.6272625, 55.0359991 ], [ -1.6270636, 55.0360143 ], [ -1.6270255, 55.0358505 ], [ -1.6272244, 55.0358353 ], [ -1.6272625, 55.0359991 ] ] ] ] } },
{ "type": "Feature", "properties": { "osm_timestamp": "2022\/08\/28 15:57:26", "addr:postcode": "WA7 5TW", "addr:street": "Crosville Way", "amenity": "cafe", "brand": "Costa", "brand:wikidata": "Q608845", "cuisine": "coffee_shop", "fhrs:id": "1022701", "internet_access": "wlan", "internet_access:fee": "no", "name": "Costa", "outdoor_seating": "yes" }, "geometry": { "type": "MultiPolygon", "coordinates": [ [ [ [ -2.7300458, 53.3396012 ], [ -2.7298733, 53.3395581 ], [ -2.7299787, 53.3394077 ], [ -2.7300596, 53.3394279 ], [ -2.7300343, 53.339464 ], [ -2.7301259, 53.3394869 ], [ -2.7300458, 53.3396012 ] ] ] ] } },
{ "type": "Feature", "properties": { "osm_timestamp": "2020\/05\/01 15:55:31", "amenity": "cafe", "brand": "Costa", "brand:wikidata": "Q608845", "cuisine": "coffee_shop", "name": "Costa" }, "geometry": { "type": "MultiPolygon", "coordinates": [ [ [ [ -1.3239171, 53.4422976 ], [ -1.3237079, 53.4423824 ], [ -1.3236458, 53.4423282 ], [ -1.3238551, 53.4422433 ], [ -1.3239171, 53.4422976 ] ] ] ] } },
{ "type": "Feature", "properties": { "osm_timestamp": "2020\/06\/22 21:50:20", "amenity": "cafe", "brand": "Starbucks", "brand:wikidata": "Q37158", "cuisine": "coffee_shop", "name": "Starbucks" }, "geometry": { "type": "MultiPolygon", "coordinates": [ [ [ [ -1.7207151, 53.7357199 ], [ -1.7206754, 53.7356615 ], [ -1.7206554, 53.7356662 ], [ -1.7206299, 53.7356286 ], [ -1.7203446, 53.7356963 ], [ -1.7203522, 53.7357075 ], [ -1.7203027, 53.7357192 ], [ -1.7203528, 53.735793 ], [ -1.7204902, 53.7357604 ], [ -1.7204977, 53.7357715 ], [ -1.7207151, 53.7357199 ] ] ] ] } },
{ "type": "Feature", "properties": { "osm_timestamp": "2020\/07\/07 17:26:53", "addr:city": "Perth", "addr:postcode": "PH1 3GA", "addr:street": "The Triangle", "amenity": "cafe", "brand": "Starbucks", "brand:wikidata": "Q37158", "cuisine": "coffee_shop", "fhrs:id": "1063268", "name": "Starbucks" }, "geometry": { "type": "MultiPolygon", "coordinates": [ [ [ [ -3.4636472, 56.4191272 ], [ -3.4636625, 56.4190265 ], [ -3.4633101, 56.4190102 ], [ -3.4632948, 56.4191108 ], [ -3.4636472, 56.4191272 ] ] ] ] } },
{ "type": "Feature", "properties": { "osm_timestamp": "2021\/05\/04 10:30:08", "amenity": "cafe", "brand": "Costa", "brand:wikidata": "Q608845", "cuisine": "coffee_shop", "internet_access": "wlan", "name": "Costa", "outdoor_seating": "yes" }, "geometry": { "type": "MultiPolygon", "coordinates": [ [ [ [ -1.5750965, 51.6499585 ], [ -1.5750033, 51.6500458 ], [ -1.5747768, 51.6499527 ], [ -1.5748699, 51.6498654 ], [ -1.5750965, 51.6499585 ] ] ] ] } },
{ "type": "Feature", "properties": { "osm_timestamp": "2020\/07\/25 11:14:28", "addr:city": "Ilminster", "addr:country": "GB", "addr:postcode": "TA19 9FF", "addr:street": "Southfields Enterprise Park", "amenity": "cafe", "brand": "Costa", "brand:wikidata": "Q608845", "cuisine": "coffee_shop", "name": "Costa", "outdoor_seating": "yes" }, "geometry": { "type": "MultiPolygon", "coordinates": [ [ [ [ -2.9362448, 50.9330245 ], [ -2.936357, 50.9327616 ], [ -2.9361216, 50.9327217 ], [ -2.9360094, 50.9329846 ], [ -2.9362448, 50.9330245 ] ] ] ] } },
{ "type": "Feature", "properties": { "osm_timestamp": "2022\/07\/07 15:55:56", "addr:city": "Wigan", "addr:postcode": "WN5 0UH", "addr:street": "Loire Drive", "amenity": "cafe", "brand": "Costa", "brand:wikidata": "Q608845", "cuisine": "coffee_shop", "fhrs:id": "1048073", "name": "Costa", "outdoor_seating": "no" }, "geometry": { "type": "MultiPolygon", "coordinates": [ [ [ [ -2.6533735, 53.5438675 ], [ -2.6531744, 53.5438817 ], [ -2.6531483, 53.5437529 ], [ -2.6530768, 53.543758 ], [ -2.6530668, 53.5437086 ], [ -2.6531422, 53.5437032 ], [ -2.6531385, 53.543685 ], [ -2.6533337, 53.543671 ], [ -2.6533735, 53.5438675 ] ] ] ] } },
{ "type": "Feature", "properties": { "osm_timestamp": "2020\/07\/28 08:03:32", "amenity": "cafe", "brand": "Starbucks", "brand:wikidata": "Q37158", "cuisine": "coffee_shop", "name": "Starbucks", "outdoor_seating": "no" }, "geometry": { "type": "MultiPolygon", "coordinates": [ [ [ [ -2.66546, 53.5519207 ], [ -2.6653607, 53.5518488 ], [ -2.6656267, 53.5517191 ], [ -2.665726, 53.551791 ], [ -2.66546, 53.5519207 ] ] ] ] } },
{ "type": "Feature", "properties": { "osm_timestamp": "2021\/07\/07 06:29:40", "addr:postcode": "WF10 4UA", "addr:street": "Thunderhead Ridge", "amenity": "cafe", "brand": "Costa", "brand:wikidata": "Q608845", "cuisine": "coffee_shop", "fhrs:id": "1105180", "internet_access": "yes", "internet_access:fee": "no", "name": "Costa", "outdoor_seating": "yes" }, "geometry": { "type": "MultiPolygon", "coordinates": [ [ [ [ -1.3494876, 53.7143515 ], [ -1.3494139, 53.7142585 ], [ -1.3491659, 53.7143274 ], [ -1.3492396, 53.7144204 ], [ -1.3494876, 53.7143515 ] ] ] ] } },
{ "type": "Feature", "properties": { "osm_timestamp": "2020\/10\/15 22:51:55", "addr:city": "Aberdeen", "addr:postcode": "AB12 3AF", "addr:street": "Abbotswell Road", "amenity": "cafe", "brand": "Costa", "brand:wikidata": "Q608845", "cuisine": "coffee_shop", "internet_access": "wlan", "internet_access:fee": "no", "name": "Costa", "outdoor_seating": "yes" }, "geometry": { "type": "MultiPolygon", "coordinates": [ [ [ [ -2.0924472, 57.1279907 ], [ -2.0922498, 57.1280318 ], [ -2.0922161, 57.127984 ], [ -2.0921935, 57.1279962 ], [ -2.0921649, 57.1279558 ], [ -2.0921918, 57.1279502 ], [ -2.0921196, 57.127848 ], [ -2.0923173, 57.1278068 ], [ -2.0923223, 57.127814 ], [ -2.0924472, 57.1279907 ] ] ] ] } },
{ "type": "Feature", "properties": { "osm_timestamp": "2022\/02\/26 22:45:26", "amenity": "cafe", "brand": "Costa", "brand:wikidata": "Q608845", "cuisine": "coffee_shop", "name": "Costa" }, "geometry": { "type": "MultiPolygon", "coordinates": [ [ [ [ 0.1670557, 51.5462149 ], [ 0.1671402, 51.5461198 ], [ 0.1673776, 51.5461999 ], [ 0.1672985, 51.5462949 ], [ 0.1670557, 51.5462149 ] ] ] ] } },
{ "type": "Feature", "properties": { "osm_timestamp": "2021\/02\/22 20:13:16", "addr:city": "Stroud", "addr:country": "GB", "addr:postcode": "GL10 3UT", "addr:street": "Sperry Way", "amenity": "cafe", "brand": "Costa", "brand:wikidata": "Q608845", "cuisine": "coffee_shop", "fhrs:id": "1263866", "name": "Costa", "outdoor_seating": "yes" }, "geometry": { "type": "MultiPolygon", "coordinates": [ [ [ [ -2.3004261, 51.7468328 ], [ -2.3003088, 51.7467692 ], [ -2.3004799, 51.746645 ], [ -2.3006022, 51.7467162 ], [ -2.3004261, 51.7468328 ] ] ] ] } },
{ "type": "Feature", "properties": { "osm_timestamp": "2022\/02\/12 09:23:24", "addr:city": "Corby", "addr:country": "GB", "addr:postcode": "NN17 3HT", "addr:street": "Corby Road", "addr:village": "Weldon", "amenity": "cafe", "brand": "Starbucks", "brand:wikidata": "Q37158", "cuisine": "coffee_shop", "fhrs:id": "1047278", "name": "Starbucks" }, "geometry": { "type": "MultiPolygon", "coordinates": [ [ [ [ -0.6512752, 52.4963212 ], [ -0.6515005, 52.4963163 ], [ -0.6514952, 52.4962069 ], [ -0.6512645, 52.4962134 ], [ -0.6512752, 52.4963212 ] ] ] ] } },
{ "type": "Feature", "properties": { "osm_timestamp": "2021\/06\/16 12:24:35", "addr:city": "Birmingham", "addr:postcode": "B29 7DF", "addr:street": "Pershore Road", "amenity": "cafe", "brand": "Starbucks", "brand:wikidata": "Q37158", "cuisine": "coffee_shop", "name": "Starbucks" }, "geometry": { "type": "MultiPolygon", "coordinates": [ [ [ [ -1.9119206, 52.4496046 ], [ -1.9120007, 52.449654 ], [ -1.9121799, 52.4495459 ], [ -1.9120998, 52.4494966 ], [ -1.9119206, 52.4496046 ] ] ] ] } },
{ "type": "Feature", "properties": { "osm_timestamp": "2021\/03\/16 09:54:20", "amenity": "cafe", "brand": "Starbucks", "brand:wikidata": "Q37158", "cuisine": "coffee_shop", "name": "Starbucks" }, "geometry": { "type": "MultiPolygon", "coordinates": [ [ [ [ -6.3923275, 54.4462786 ], [ -6.3924443, 54.4463609 ], [ -6.3922319, 54.4464679 ], [ -6.3921399, 54.4464514 ], [ -6.3920691, 54.4464082 ], [ -6.3923275, 54.4462786 ] ] ] ] } },
{ "type": "Feature", "properties": { "osm_timestamp": "2022\/01\/23 09:53:24", "addr:city": "Wakefield", "addr:postcode": "WF1 5FW", "addr:street": "Neil Fox Way", "amenity": "cafe", "brand": "Starbucks", "brand:wikidata": "Q37158", "cuisine": "coffee_shop", "fhrs:id": "1264665", "name": "Starbucks", "outdoor_seating": "yes" }, "geometry": { "type": "MultiPolygon", "coordinates": [ [ [ [ -1.4707407, 53.668853 ], [ -1.4708431, 53.6689475 ], [ -1.4706065, 53.6690375 ], [ -1.4705805, 53.6690136 ], [ -1.4705041, 53.6689431 ], [ -1.4705979, 53.6689074 ], [ -1.4707407, 53.668853 ] ] ] ] } },
{ "type": "Feature", "properties": { "osm_timestamp": "2021\/12\/11 13:54:57", "addr:city": "Bridgwater", "addr:country": "GB", "addr:postcode": "TA6 6GY", "addr:street": "Carnival Way", "addr:village": "North Petherton", "amenity": "cafe", "brand": "Costa", "brand:wikidata": "Q608845", "cuisine": "coffee_shop", "internet_access": "wlan", "internet_access:fee": "customers", "name": "Costa", "outdoor_seating": "yes" }, "geometry": { "type": "MultiPolygon", "coordinates": [ [ [ [ -3.0012417, 51.1023261 ], [ -3.0009711, 51.1022331 ], [ -3.0007303, 51.1025095 ], [ -3.0010009, 51.1026025 ], [ -3.0012417, 51.1023261 ] ] ] ] } },
{ "type": "Feature", "properties": { "osm_timestamp": "2021\/07\/08 16:47:08", "addr:city": "Lichfield", "addr:country": "GB", "addr:postcode": "WS13 6UB", "addr:street": "Eastern Avenue", "amenity": "cafe", "brand": "Costa", "brand:wikidata": "Q608845", "cuisine": "coffee_shop", "fhrs:id": "1249407", "name": "Costa" }, "geometry": { "type": "MultiPolygon", "coordinates": [ [ [ [ -1.8122924, 52.6920398 ], [ -1.8123955, 52.6919533 ], [ -1.8121687, 52.691854 ], [ -1.8120656, 52.6919406 ], [ -1.8122924, 52.6920398 ] ] ] ] } },
{ "type": "Feature", "properties": { "osm_timestamp": "2021\/05\/14 20:47:06", "amenity": "cafe", "brand": "Costa", "brand:wikidata": "Q608845", "cuisine": "coffee_shop", "name": "Costa" }, "geometry": { "type": "MultiPolygon", "coordinates": [ [ [ [ -3.5621104, 50.6417958 ], [ -3.5619399, 50.6417616 ], [ -3.5620404, 50.6415603 ], [ -3.5622109, 50.6415946 ], [ -3.5621104, 50.6417958 ] ] ] ] } },
{ "type": "Feature", "properties": { "osm_timestamp": "2021\/05\/19 22:03:17", "amenity": "cafe", "brand": "Costa", "brand:wikidata": "Q608845", "cuisine": "coffee_shop", "name": "Costa" }, "geometry": { "type": "MultiPolygon", "coordinates": [ [ [ [ -3.2705643, 51.4014318 ], [ -3.2703869, 51.4014313 ], [ -3.2703854, 51.4016248 ], [ -3.2705629, 51.4016253 ], [ -3.2705643, 51.4014318 ] ] ] ] } },
{ "type": "Feature", "properties": { "osm_timestamp": "2021\/05\/19 22:03:17", "amenity": "cafe", "brand": "Starbucks", "brand:wikidata": "Q37158", "cuisine": "coffee_shop", "name": "Starbucks" }, "geometry": { "type": "MultiPolygon", "coordinates": [ [ [ [ -3.2715622, 51.4012334 ], [ -3.2715225, 51.4011112 ], [ -3.2712768, 51.4011423 ], [ -3.2713164, 51.4012645 ], [ -3.2715622, 51.4012334 ] ] ] ] } },
{ "type": "Feature", "properties": { "osm_timestamp": "2021\/12\/31 11:13:37", "addr:place": "Thinford Park", "addr:postcode": "DH6 5JQ", "amenity": "cafe", "brand": "Costa", "brand:wikidata": "Q608845", "cuisine": "coffee_shop", "fhrs:id": "1079912", "name": "Costa" }, "geometry": { "type": "MultiPolygon", "coordinates": [ [ [ [ -1.5662745, 54.7057473 ], [ -1.5659993, 54.705779 ], [ -1.5659603, 54.705666 ], [ -1.5662355, 54.7056343 ], [ -1.5662745, 54.7057473 ] ] ] ] } },
{ "type": "Feature", "properties": { "osm_timestamp": "2022\/01\/08 20:15:05", "amenity": "cafe", "brand": "Tim Hortons", "brand:wikidata": "Q175106", "cuisine": "coffee_shop", "name": "Tim Hortons" }, "geometry": { "type": "MultiPolygon", "coordinates": [ [ [ [ -0.8360628, 52.2439559 ], [ -0.8359666, 52.2437821 ], [ -0.8357335, 52.2438305 ], [ -0.8358296, 52.2440043 ], [ -0.8360628, 52.2439559 ] ] ] ] } },
{ "type": "Feature", "properties": { "osm_timestamp": "2022\/08\/05 21:58:21", "addr:city": "Bridgwater", "addr:postcode": "TA6 4WD", "addr:street": "Bristol Road", "amenity": "cafe", "brand": "Starbucks", "brand:wikidata": "Q37158", "cuisine": "coffee_shop", "name": "Starbucks" }, "geometry": { "type": "MultiPolygon", "coordinates": [ [ [ [ -2.9880933, 51.1654505 ], [ -2.9879532, 51.1652918 ], [ -2.9876595, 51.1653937 ], [ -2.9877996, 51.1655525 ], [ -2.9880933, 51.1654505 ] ] ] ] } },
{ "type": "Feature", "properties": { "osm_timestamp": "2021\/07\/13 12:50:36", "amenity": "cafe", "brand": "Costa", "brand:wikidata": "Q608845", "cuisine": "coffee_shop", "name": "Costa" }, "geometry": { "type": "MultiPolygon", "coordinates": [ [ [ [ -2.5287593, 53.4981374 ], [ -2.5286081, 53.4979989 ], [ -2.5284639, 53.4980546 ], [ -2.5286152, 53.4981931 ], [ -2.5287593, 53.4981374 ] ] ] ] } },
{ "type": "Feature", "properties": { "osm_timestamp": "2022\/08\/14 19:16:01", "amenity": "cafe", "brand": "Costa", "brand:wikidata": "Q608845", "cuisine": "coffee_shop", "name": "Costa Drive Thru" }, "geometry": { "type": "MultiPolygon", "coordinates": [ [ [ [ -1.4182395, 54.9130995 ], [ -1.4182233, 54.9129892 ], [ -1.4179391, 54.913003 ], [ -1.4179553, 54.9131133 ], [ -1.4182395, 54.9130995 ] ] ] ] } },
{ "type": "Feature", "properties": { "osm_timestamp": "2021\/07\/10 08:25:21", "addr:city": "Orpington", "addr:postcode": "BR5 3SG", "addr:street": "Sevenoaks Way", "amenity": "cafe", "brand": "Starbucks", "brand:wikidata": "Q37158", "cuisine": "coffee_shop", "fhrs:id": "1340171", "name": "Starbucks" }, "geometry": { "type": "MultiPolygon", "coordinates": [ [ [ [ 0.1132502, 51.3972539 ], [ 0.1134271, 51.3972215 ], [ 0.1133428, 51.3970419 ], [ 0.1131793, 51.3970718 ], [ 0.1132281, 51.3971759 ], [ 0.1132147, 51.3971783 ], [ 0.1132502, 51.3972539 ] ] ] ] } },
{ "type": "Feature", "properties": { "osm_timestamp": "2021\/08\/06 10:41:46", "addr:city": "Liverpool", "addr:postcode": "L24 9HZ", "addr:street": "Boulevard Retail Park", "amenity": "cafe", "brand": "Costa", "brand:wikidata": "Q608845", "cuisine": "coffee_shop", "fhrs:id": "1262318", "name": "Costa" }, "geometry": { "type": "MultiPolygon", "coordinates": [ [ [ [ -2.8596195, 53.3497554 ], [ -2.8596534, 53.3495857 ], [ -2.8594778, 53.3495732 ], [ -2.8594438, 53.3497428 ], [ -2.8596195, 53.3497554 ] ] ] ] } },
{ "type": "Feature", "properties": { "osm_timestamp": "2021\/09\/17 19:43:55", "amenity": "cafe", "brand": "Costa", "brand:wikidata": "Q608845", "cuisine": "coffee_shop", "name": "Costa" }, "geometry": { "type": "MultiPolygon", "coordinates": [ [ [ [ -4.0356355, 55.7881514 ], [ -4.0355899, 55.7881741 ], [ -4.0354456, 55.7880978 ], [ -4.0354982, 55.7880718 ], [ -4.0356355, 55.7881514 ] ] ] ] } },
{ "type": "Feature", "properties": { "osm_timestamp": "2021\/09\/20 17:39:21", "amenity": "cafe", "brand": "Starbucks", "brand:wikidata": "Q37158", "cuisine": "coffee_shop", "name": "Starbucks" }, "geometry": { "type": "MultiPolygon", "coordinates": [ [ [ [ -2.2667805, 57.1479788 ], [ -2.2666252, 57.1479175 ], [ -2.2664521, 57.1480466 ], [ -2.2666075, 57.1481079 ], [ -2.2667805, 57.1479788 ] ] ] ] } },
{ "type": "Feature", "properties": { "osm_timestamp": "2021\/09\/28 16:01:04", "addr:city": "Ipswich", "addr:postcode": "IP1 2DZ", "addr:street": "West End Road", "amenity": "cafe", "cuisine": "coffee_shop", "fhrs:id": "947046", "name": "Starbucks" }, "geometry": { "type": "MultiPolygon", "coordinates": [ [ [ [ 1.135853, 52.0574538 ], [ 1.1360328, 52.0574804 ], [ 1.1360937, 52.0573248 ], [ 1.1359139, 52.0572982 ], [ 1.135853, 52.0574538 ] ] ] ] } },
{ "type": "Feature", "properties": { "osm_timestamp": "2021\/10\/10 18:32:02", "amenity": "cafe", "brand": "Costa", "brand:wikidata": "Q608845", "cuisine": "coffee_shop", "name": "Costa" }, "geometry": { "type": "MultiPolygon", "coordinates": [ [ [ [ -2.2615792, 53.0815513 ], [ -2.2613736, 53.0814137 ], [ -2.2612352, 53.0814884 ], [ -2.2614407, 53.081626 ], [ -2.2615792, 53.0815513 ] ] ] ] } },
{ "type": "Feature", "properties": { "osm_timestamp": "2021\/10\/15 09:50:01", "amenity": "cafe", "brand": "Starbucks", "brand:wikidata": "Q37158", "cuisine": "coffee_shop", "name": "Starbucks" }, "geometry": { "type": "MultiPolygon", "coordinates": [ [ [ [ -2.7148919, 52.6908657 ], [ -2.7151516, 52.6907541 ], [ -2.7150779, 52.690691 ], [ -2.7150085, 52.6907207 ], [ -2.7149759, 52.6906928 ], [ -2.7149213, 52.6907163 ], [ -2.7149555, 52.6907456 ], [ -2.7148197, 52.6908039 ], [ -2.7148919, 52.6908657 ] ] ] ] } },
{ "type": "Feature", "properties": { "osm_timestamp": "2021\/11\/07 20:52:19", "amenity": "cafe", "brand": "Costa", "brand:wikidata": "Q608845", "cuisine": "coffee_shop", "name": "Costa" }, "geometry": { "type": "MultiPolygon", "coordinates": [ [ [ [ -2.1355507, 51.891671 ], [ -2.1355512, 51.891538 ], [ -2.1354447, 51.8915379 ], [ -2.1352019, 51.8915375 ], [ -2.1352014, 51.8916705 ], [ -2.1355507, 51.891671 ] ] ] ] } },
{ "type": "Feature", "properties": { "osm_timestamp": "2021\/11\/20 17:18:11", "amenity": "cafe", "brand": "Costa", "brand:wikidata": "Q608845", "cuisine": "coffee_shop", "name": "Costa Drive Thru" }, "geometry": { "type": "MultiPolygon", "coordinates": [ [ [ [ -3.1753693, 51.7955625 ], [ -3.1752093, 51.795561 ], [ -3.1752135, 51.7953911 ], [ -3.1753735, 51.7953926 ], [ -3.1753693, 51.7955625 ] ] ] ] } },
{ "type": "Feature", "properties": { "osm_timestamp": "2021\/11\/26 19:38:06", "amenity": "cafe", "brand": "Costa", "brand:wikidata": "Q608845", "cuisine": "coffee_shop", "name": "Costa Drive Thru" }, "geometry": { "type": "MultiPolygon", "coordinates": [ [ [ [ -3.6247932, 55.075967 ], [ -3.6247647, 55.0758636 ], [ -3.6245029, 55.0758872 ], [ -3.6245314, 55.0759907 ], [ -3.6247932, 55.075967 ] ] ] ] } },
{ "type": "Feature", "properties": { "osm_timestamp": "2022\/07\/03 11:46:40", "addr:city": "Nottingham", "addr:postcode": "NG2 1AL", "addr:street": "Queen's Drive", "amenity": "cafe", "brand": "Starbucks", "brand:wikidata": "Q37158", "cuisine": "coffee_shop", "fhrs:id": "1370438", "name": "Starbucks" }, "geometry": { "type": "MultiPolygon", "coordinates": [ [ [ [ -1.1580282, 52.9437014 ], [ -1.1579818, 52.9435527 ], [ -1.1578222, 52.9435708 ], [ -1.1578686, 52.9437195 ], [ -1.1580282, 52.9437014 ] ] ] ] } },
{ "type": "Feature", "properties": { "osm_timestamp": "2021\/12\/04 22:58:06", "amenity": "cafe", "brand": "Costa", "brand:wikidata": "Q608845", "cuisine": "coffee_shop", "internet_access": "wlan", "name": "Costa Drive Thru" }, "geometry": { "type": "MultiPolygon", "coordinates": [ [ [ [ -2.1427344, 53.518168 ], [ -2.1419651, 53.518283 ], [ -2.1417884, 53.5178649 ], [ -2.1425577, 53.5177499 ], [ -2.1427344, 53.518168 ] ] ] ] } },
{ "type": "Feature", "properties": { "osm_timestamp": "2021\/12\/10 10:23:33", "amenity": "cafe", "brand": "Costa", "brand:wikidata": "Q608845", "cuisine": "coffee_shop", "name": "Costa Drive Thru" }, "geometry": { "type": "MultiPolygon", "coordinates": [ [ [ [ 0.4457499, 51.3407371 ], [ 0.44583, 51.340539 ], [ 0.4461056, 51.3405826 ], [ 0.4460254, 51.3407806 ], [ 0.4457499, 51.3407371 ] ] ] ] } },
{ "type": "Feature", "properties": { "osm_timestamp": "2021\/12\/13 01:20:36", "addr:city": "Warrington", "addr:postcode": "WA3 6RW", "addr:street": "Oakwood Gate", "amenity": "cafe", "brand": "Starbucks", "brand:wikidata": "Q37158", "cuisine": "coffee_shop", "internet_access": "wlan", "internet_access:fee": "no", "name": "Starbucks", "outdoor_seating": "no" }, "geometry": { "type": "MultiPolygon", "coordinates": [ [ [ [ -2.5275423, 53.4193367 ], [ -2.5277175, 53.4193014 ], [ -2.5277586, 53.4192931 ], [ -2.5277666, 53.4193074 ], [ -2.5279033, 53.4192798 ], [ -2.5279463, 53.4193557 ], [ -2.5277103, 53.4194032 ], [ -2.5277247, 53.4194286 ], [ -2.5276745, 53.4194387 ], [ -2.5276658, 53.4194232 ], [ -2.5276343, 53.4194296 ], [ -2.5276158, 53.419397 ], [ -2.5275805, 53.4194041 ], [ -2.5275423, 53.4193367 ] ] ] ] } },
{ "type": "Feature", "properties": { "osm_timestamp": "2022\/01\/23 14:18:57", "addr:city": "Cardiff", "addr:postcode": "CF5 6XW", "amenity": "cafe", "brand": "Starbucks", "brand:wikidata": "Q37158", "cuisine": "coffee_shop", "fhrs:id": "1262500", "internet_access": "wlan", "name": "Starbucks" }, "geometry": { "type": "MultiPolygon", "coordinates": [ [ [ [ -3.2697854, 51.4652086 ], [ -3.2696541, 51.4651204 ], [ -3.2698417, 51.465012 ], [ -3.2698896, 51.4649844 ], [ -3.2699061, 51.4649954 ], [ -3.2699738, 51.4650409 ], [ -3.2700163, 51.4650163 ], [ -3.2700635, 51.4650481 ], [ -3.2697854, 51.4652086 ] ] ] ] } },
{ "type": "Feature", "properties": { "osm_timestamp": "2022\/03\/01 03:45:31", "amenity": "cafe", "brand": "Costa", "brand:wikidata": "Q608845", "cuisine": "coffee_shop", "name": "Costa Drive Thru" }, "geometry": { "type": "MultiPolygon", "coordinates": [ [ [ [ -1.3289879, 53.1389994 ], [ -1.3288876, 53.1389455 ], [ -1.3289285, 53.1389181 ], [ -1.3290287, 53.1389721 ], [ -1.3289879, 53.1389994 ] ] ] ] } },
{ "type": "Feature", "properties": { "osm_timestamp": "2022\/03\/01 03:45:31", "amenity": "cafe", "brand": "Costa", "brand:wikidata": "Q608845", "cuisine": "coffee_shop", "name": "Costa Drive Thru" }, "geometry": { "type": "MultiPolygon", "coordinates": [ [ [ [ -1.3319439, 53.1372779 ], [ -1.3320241, 53.1372124 ], [ -1.3319711, 53.1371891 ], [ -1.331891, 53.1372546 ], [ -1.3319439, 53.1372779 ] ] ] ] } },
{ "type": "Feature", "properties": { "osm_timestamp": "2022\/03\/20 15:51:24", "addr:city": "Ethiebeaton Park", "addr:postcode": "DD5 4HB", "addr:street": "Ethiebeaton Park", "amenity": "cafe", "brand": "Costa", "brand:wikidata": "Q608845", "cuisine": "coffee_shop", "internet_access": "wlan", "internet_access:fee": "no", "name": "Costa Drive Thru", "outdoor_seating": "yes" }, "geometry": { "type": "MultiPolygon", "coordinates": [ [ [ [ -2.8326788, 56.4911639 ], [ -2.8322332, 56.4910793 ], [ -2.8322897, 56.4909888 ], [ -2.8327352, 56.4910735 ], [ -2.8326788, 56.4911639 ] ] ] ] } },
{ "type": "Feature", "properties": { "osm_timestamp": "2022\/03\/21 16:45:24", "addr:city": "Eastfield", "addr:postcode": "YO11 3UT", "addr:street": "Market Lane", "amenity": "cafe", "brand": "Costa", "brand:wikidata": "Q608845", "cuisine": "coffee_shop", "name": "Costa Drive Thru", "outdoor_seating": "yes" }, "geometry": { "type": "MultiPolygon", "coordinates": [ [ [ [ -0.418531, 54.23769 ], [ -0.4184425, 54.237601 ], [ -0.4184119, 54.2376114 ], [ -0.4183844, 54.2375837 ], [ -0.4184151, 54.2375733 ], [ -0.4183928, 54.2375509 ], [ -0.4185364, 54.2375022 ], [ -0.4186746, 54.2376412 ], [ -0.418531, 54.23769 ] ] ] ] } },
{ "type": "Feature", "properties": { "osm_timestamp": "2022\/04\/04 10:05:42", "addr:city": "Rotherham", "addr:postcode": "S60 1TG", "addr:street": "Stadium Way", "amenity": "cafe", "brand": "Costa", "brand:wikidata": "Q608845", "cuisine": "coffee_shop", "name": "Costa Drive Thru" }, "geometry": { "type": "MultiPolygon", "coordinates": [ [ [ [ -1.3432771, 53.4448096 ], [ -1.3432447, 53.4447832 ], [ -1.3432227, 53.4447928 ], [ -1.343126, 53.4447141 ], [ -1.3429754, 53.4447798 ], [ -1.3431382, 53.4449122 ], [ -1.3432878, 53.4448469 ], [ -1.3432542, 53.4448196 ], [ -1.3432771, 53.4448096 ] ] ] ] } },
{ "type": "Feature", "properties": { "osm_timestamp": "2022\/04\/11 21:02:46", "amenity": "cafe", "brand": "Costa", "brand:wikidata": "Q608845", "cuisine": "coffee_shop", "name": "Costa Drive Thru" }, "geometry": { "type": "MultiPolygon", "coordinates": [ [ [ [ 0.3827378, 52.7439824 ], [ 0.3824964, 52.7437973 ], [ 0.3827191, 52.7436901 ], [ 0.3829551, 52.7438801 ], [ 0.3827378, 52.7439824 ] ] ] ] } },
{ "type": "Feature", "properties": { "osm_timestamp": "2022\/04\/20 13:21:05", "addr:city": "Pencoed", "addr:postcode": "CF35 5HY", "addr:street": "M4", "amenity": "cafe", "brand": "Starbucks", "brand:wikidata": "Q37158", "cuisine": "coffee_shop", "internet_access": "yes", "internet_access:fee": "no", "name": "Starbucks", "outdoor_seating": "no" }, "geometry": { "type": "MultiPolygon", "coordinates": [ [ [ [ -3.4972071, 51.5147377 ], [ -3.4973163, 51.5146632 ], [ -3.4971253, 51.5145548 ], [ -3.4970162, 51.5146293 ], [ -3.4972071, 51.5147377 ] ] ] ] } },
{ "type": "Feature", "properties": { "osm_timestamp": "2022\/04\/21 10:33:50", "addr:city": "Beverley", "addr:postcode": "HU17 0XL", "addr:street": "Eastfields Road", "amenity": "cafe", "brand": "Costa", "brand:wikidata": "Q608845", "cuisine": "coffee_shop", "internet_access": "yes", "internet_access:fee": "no", "name": "Costa Drive Thru" }, "geometry": { "type": "MultiPolygon", "coordinates": [ [ [ [ -0.4077762, 53.8346616 ], [ -0.4075854, 53.8346151 ], [ -0.4076922, 53.8344625 ], [ -0.407883, 53.834509 ], [ -0.4077762, 53.8346616 ] ] ] ] } },
{ "type": "Feature", "properties": { "osm_timestamp": "2022\/04\/29 08:23:43", "amenity": "cafe", "brand": "Starbucks", "brand:wikidata": "Q37158", "cuisine": "coffee_shop", "name": "Starbucks" }, "geometry": { "type": "MultiPolygon", "coordinates": [ [ [ [ -3.1715962, 56.1976586 ], [ -3.1716278, 56.1975347 ], [ -3.1712877, 56.1975078 ], [ -3.1712562, 56.1976318 ], [ -3.1715962, 56.1976586 ] ] ] ] } },
{ "type": "Feature", "properties": { "osm_timestamp": "2022\/05\/03 18:32:44", "amenity": "cafe", "brand": "Costa", "brand:wikidata": "Q608845", "cuisine": "coffee_shop", "name": "Costa Drive Thru" }, "geometry": { "type": "MultiPolygon", "coordinates": [ [ [ [ -2.3368169, 53.1384985 ], [ -2.3367613, 53.1385032 ], [ -2.3367417, 53.1384209 ], [ -2.3367973, 53.1384161 ], [ -2.3368169, 53.1384985 ] ] ] ] } },
{ "type": "Feature", "properties": { "osm_timestamp": "2022\/08\/03 16:51:10", "amenity": "cafe", "brand": "Costa", "brand:wikidata": "Q608845", "check_date": "2022-08-03", "cuisine": "coffee_shop", "name": "Costa" }, "geometry": { "type": "MultiPolygon", "coordinates": [ [ [ [ -1.9963426, 50.7362657 ], [ -1.9961122, 50.7362681 ], [ -1.9961097, 50.7361711 ], [ -1.9962544, 50.7361697 ], [ -1.9962539, 50.7361504 ], [ -1.9963065, 50.7361499 ], [ -1.996307, 50.7361689 ], [ -1.9963401, 50.7361685 ], [ -1.9963426, 50.7362657 ] ] ] ] } },
{ "type": "Feature", "properties": { "osm_timestamp": "2022\/09\/15 13:11:41", "amenity": "cafe", "brand": "Costa", "brand:wikidata": "Q608845", "cuisine": "coffee_shop", "internet_access": "yes", "name": "Costa Drive Thru" }, "geometry": { "type": "MultiPolygon", "coordinates": [ [ [ [ -2.1483574, 51.44696 ], [ -2.1481268, 51.4470083 ], [ -2.1480774, 51.4469201 ], [ -2.1482963, 51.4468665 ], [ -2.1483574, 51.44696 ] ] ] ] } },
{ "type": "Feature", "properties": { "osm_timestamp": "2022\/09\/10 19:12:06", "addr:city": "Exeter", "addr:postcode": "EX2 5AZ", "addr:street": "Pynes Hill", "amenity": "cafe", "brand": "Costa", "brand:wikidata": "Q608845", "cuisine": "coffee_shop", "name": "Costa", "outdoor_seating": "yes" }, "geometry": { "type": "MultiPolygon", "coordinates": [ [ [ [ -3.4857661, 50.7083654 ], [ -3.485879, 50.7083408 ], [ -3.4860169, 50.7083108 ], [ -3.4859542, 50.7081952 ], [ -3.4857034, 50.7082498 ], [ -3.4857661, 50.7083654 ] ] ] ] } },
{ "type": "Feature", "properties": { "osm_timestamp": "2022\/05\/15 19:39:35", "addr:city": "Hemsworth", "addr:postcode": "WF9 4LT", "addr:street": "Southmoor Road", "amenity": "cafe", "brand": "Costa", "brand:wikidata": "Q608845", "cuisine": "coffee_shop", "name": "Costa Drive Thru" }, "geometry": { "type": "MultiPolygon", "coordinates": [ [ [ [ -1.3513826, 53.6096448 ], [ -1.3512143, 53.6096648 ], [ -1.3511804, 53.6095645 ], [ -1.3513487, 53.6095445 ], [ -1.3513826, 53.6096448 ] ] ] ] } },
{ "type": "Feature", "properties": { "osm_timestamp": "2022\/05\/17 19:06:14", "addr:city": "Highbridge", "addr:country": "GB", "addr:postcode": "TA9 4BA", "addr:street": "Isleport Business Park", "amenity": "cafe", "brand": "Costa", "brand:wikidata": "Q608845", "cuisine": "coffee_shop", "fhrs:id": "1426758", "internet_access": "yes", "name": "Costa", "outdoor_seating": "yes" }, "geometry": { "type": "MultiPolygon", "coordinates": [ [ [ [ -2.9615676, 51.2277404 ], [ -2.9616532, 51.2276015 ], [ -2.961316, 51.22752 ], [ -2.9612304, 51.2276588 ], [ -2.9615676, 51.2277404 ] ] ] ] } },
{ "type": "Feature", "properties": { "osm_timestamp": "2022\/09\/19 17:58:14", "amenity": "cafe", "brand": "Starbucks", "brand:wikidata": "Q37158", "cuisine": "coffee_shop", "internet_access": "wlan", "internet_access:fee": "no", "name": "Starbucks" }, "geometry": { "type": "MultiPolygon", "coordinates": [ [ [ [ -4.3206123, 55.8699823 ], [ -4.3206704, 55.8698719 ], [ -4.3211039, 55.8699437 ], [ -4.3210458, 55.8700541 ], [ -4.3206123, 55.8699823 ] ] ] ] } },
{ "type": "Feature", "properties": { "osm_timestamp": "2022\/09\/02 18:57:15", "amenity": "cafe", "brand": "Costa", "brand:wikidata": "Q608845", "cuisine": "coffee_shop", "name": "Costa Drive Thru" }, "geometry": { "type": "MultiPolygon", "coordinates": [ [ [ [ -2.9203207, 51.2699049 ], [ -2.9203761, 51.2698065 ], [ -2.9203101, 51.2697919 ], [ -2.9202547, 51.2698904 ], [ -2.9203207, 51.2699049 ] ] ] ] } },
{ "type": "Feature", "properties": { "osm_timestamp": "2022\/08\/25 20:50:48", "amenity": "cafe", "brand": "Starbucks", "brand:wikidata": "Q37158", "cuisine": "coffee_shop", "name": "Starbucks" }, "geometry": { "type": "MultiPolygon", "coordinates": [ [ [ [ -5.656763, 54.6484941 ], [ -5.656594, 54.6485339 ], [ -5.6564817, 54.6483742 ], [ -5.6566507, 54.6483344 ], [ -5.656763, 54.6484941 ] ] ] ] } },
{ "type": "Feature", "properties": { "osm_timestamp": "2022\/09\/13 00:03:43", "amenity": "cafe", "brand": "Starbucks", "brand:wikidata": "Q37158", "cuisine": "coffee_shop", "name": "Starbucks Drive Thru" }, "geometry": { "type": "MultiPolygon", "coordinates": [ [ [ [ -1.5545006, 55.1253498 ], [ -1.5541879, 55.1253971 ], [ -1.5541447, 55.1253036 ], [ -1.5542918, 55.1252814 ], [ -1.5542794, 55.1252547 ], [ -1.5544045, 55.1252358 ], [ -1.5544209, 55.1252714 ], [ -1.5544615, 55.1252653 ], [ -1.5545006, 55.1253498 ] ] ] ] } },
{ "type": "Feature", "properties": { "osm_timestamp": "2022\/09\/09 20:04:24", "amenity": "cafe", "brand": "Costa", "brand:wikidata": "Q608845", "cuisine": "coffee_shop", "name": "Costa Drive Thru" }, "geometry": { "type": "MultiPolygon", "coordinates": [ [ [ [ 0.6815348, 51.5758617 ], [ 0.6816987, 51.5758588 ], [ 0.6816898, 51.5756644 ], [ 0.6815259, 51.5756673 ], [ 0.6815348, 51.5758617 ] ] ] ] } },
{ "type": "Feature", "properties": { "osm_timestamp": "2022\/09\/11 17:06:17", "addr:city": "Cardiff", "addr:postcode": "CF11 0JP", "addr:street": "International Drive", "amenity": "cafe", "brand": "Starbucks", "brand:wikidata": "Q37158", "cuisine": "coffee_shop", "name": "Starbucks" }, "geometry": { "type": "MultiPolygon", "coordinates": [ [ [ [ -3.1841609, 51.452794 ], [ -3.1840246, 51.452756 ], [ -3.1841311, 51.452608 ], [ -3.1842658, 51.4526456 ], [ -3.1841998, 51.4527373 ], [ -3.1842353, 51.4527473 ], [ -3.1842147, 51.4527759 ], [ -3.1841807, 51.4527664 ], [ -3.1841609, 51.452794 ] ] ] ] } },
{ "type": "Feature", "properties": { "osm_timestamp": "2022\/09\/11 17:38:21", "amenity": "cafe", "brand": "Costa", "brand:wikidata": "Q608845", "cuisine": "coffee_shop", "name": "Costa Drive Thru" }, "geometry": { "type": "MultiPolygon", "coordinates": [ [ [ [ -0.6939864, 53.5871906 ], [ -0.6938022, 53.5871859 ], [ -0.6938149, 53.5870144 ], [ -0.6939977, 53.587019 ], [ -0.6939864, 53.5871906 ] ] ] ] } }
]
}
